{"type": "FeatureCollection", "features": [{"type": "Feature", "properties": {"name": "Grafton County", "students": 442, "pop": 10986, "acsPriv": 1083, "seats": 505}, "geometry": {"type": "Polygon", "coordinates": [[[-71.849203, 43.6112], [-71.892112, 43.574618], [-71.93531, 43.52888], [-72.067165, 43.543971], [-72.069516, 43.553172], [-72.090893, 43.528857], [-72.120176, 43.538302], [-72.106412, 43.553485], [-72.208313, 43.585207], [-72.329899, 43.600214], [-72.328129, 43.601671], [-72.328419, 43.607058], [-72.333195, 43.610285], [-72.335148, 43.616159], [-72.332783, 43.624361], [-72.329166, 43.626825], [-72.327381, 43.630663], [-72.329762, 43.633447], [-72.329136, 43.63553], [-72.314694, 43.641858], [-72.313633, 43.656938], [-72.303149, 43.668619], [-72.301425, 43.67576], [-72.306018, 43.683351], [-72.305133, 43.695321], [-72.301776, 43.699655], [-72.299701, 43.706109], [-72.292178, 43.711068], [-72.281741, 43.723763], [-72.275683, 43.727105], [-72.271105, 43.733918], [-72.264467, 43.733895], [-72.24666, 43.742486], [-72.234178, 43.745965], [-72.230943, 43.748192], [-72.218537, 43.765465], [-72.20523, 43.77093], [-72.203934, 43.779404], [-72.205536, 43.784584], [-72.196182, 43.790917], [-72.190994, 43.800484], [-72.184051, 43.806404], [-72.183441, 43.810448], [-72.18895, 43.82119], [-72.182449, 43.834121], [-72.18309, 43.84468], [-72.188034, 43.855155], [-72.184616, 43.864143], [-72.167907, 43.869109], [-72.173584, 43.879615], [-72.172103, 43.884986], [-72.159728, 43.887664], [-72.157164, 43.89495], [-72.150527, 43.902099], [-72.136061, 43.909171], [-72.132414, 43.913321], [-72.120451, 43.919555], [-72.118147, 43.923606], [-72.116911, 43.933844], [-72.119276, 43.943747], [-72.118345, 43.946532], [-72.10574, 43.949829], [-72.098996, 43.957564], [-72.101148, 43.960852], [-72.100675, 43.963004], [-72.09094, 43.96578], [-72.105619, 43.969984], [-72.110853, 43.966994], [-72.114607, 43.96871], [-72.112043, 43.985952], [-72.116987, 43.994207], [-72.10922, 44.000356], [-72.104123, 44.002371], [-72.105527, 44.012792], [-72.097593, 44.015226], [-72.093549, 44.012861], [-72.093488, 44.009443], [-72.090527, 44.009924], [-72.095349, 44.016462], [-72.095426, 44.021757], [-72.091504, 44.024412], [-72.085477, 44.021261], [-72.082669, 44.021803], [-72.081342, 44.028364], [-72.074811, 44.032407], [-72.079144, 44.039502], [-72.07832, 44.043378], [-72.061901, 44.049596], [-72.063122, 44.052198], [-72.068936, 44.054281], [-72.068096, 44.057378], [-72.057293, 44.058339], [-72.048565, 44.069234], [-72.052517, 44.076642], [-72.043514, 44.079244], [-72.038036, 44.076543], [-72.031841, 44.078542], [-72.033245, 44.08151], [-72.045284, 44.087308], [-72.043483, 44.088902], [-72.037105, 44.088636], [-72.03326, 44.090474], [-72.030681, 44.097714], [-72.031306, 44.10043], [-72.039455, 44.10352], [-72.042263, 44.101353], [-72.04391, 44.0966], [-72.04788, 44.096586], [-72.052135, 44.100156], [-72.05537, 44.11076], [-72.053264, 44.11469], [-72.053143, 44.119511], [-72.045131, 44.124691], [-72.037303, 44.124913], [-72.03326, 44.13168], [-72.041957, 44.136998], [-72.042827, 44.150967], [-72.038997, 44.156796], [-72.043087, 44.156552], [-72.043911, 44.158054], [-72.042293, 44.162045], [-72.047191, 44.161633], [-72.048946, 44.165241], [-72.05183, 44.1665], [-72.058331, 44.181324], [-72.066158, 44.190128], [-72.064327, 44.197574], [-72.058743, 44.20203], [-72.057751, 44.205837], [-72.059475, 44.21056], [-72.05537, 44.212833], [-72.052578, 44.21783], [-72.053631, 44.225345], [-72.047664, 44.238956], [-72.050121, 44.244312], [-72.05473, 44.247875], [-72.06152, 44.261073], [-72.05946, 44.261997], [-72.060772, 44.261851], [-72.061657, 44.263553], [-72.05949, 44.265765], [-72.059643, 44.263965], [-72.058605, 44.265056], [-72.060055, 44.267589], [-72.058331, 44.270083], [-72.064754, 44.267688], [-72.067135, 44.268237], [-72.068417, 44.270503], [-72.064389, 44.279323], [-72.053722, 44.290179], [-72.046673, 44.291835], [-72.044002, 44.295337], [-72.038524, 44.296443], [-72.032878, 44.302165], [-72.031413, 44.315249], [-72.03361, 44.317141], [-72.032802, 44.32049], [-72.029002, 44.322383], [-72.019252, 44.320193], [-72.009089, 44.322222], [-71.988138, 44.330065], [-71.984659, 44.336016], [-71.982187, 44.337168], [-71.945595, 44.33771], [-71.93525, 44.335757], [-71.9291, 44.337626], [-71.925225, 44.341853], [-71.917213, 44.346636], [-71.908424, 44.348414], [-71.899528, 44.346743], [-71.871588, 44.33668], [-71.863134, 44.339899], [-71.85285, 44.340922], [-71.833089, 44.350237], [-71.815846, 44.354006], [-71.812413, 44.357325], [-71.816289, 44.367403], [-71.812321, 44.371637], [-71.815678, 44.375025], [-71.814427, 44.381922], [-71.809132, 44.38376], [-71.800572, 44.384028], [-71.799885, 44.386072], [-71.803488, 44.39189], [-71.793675, 44.399461], [-71.778446, 44.399835], [-71.765735, 44.406351], [-71.696885, 44.332118], [-71.686921, 44.336581], [-71.587004, 44.304759], [-71.575819, 44.254596], [-71.507412, 44.262897], [-71.50584, 44.255557], [-71.469706, 44.259936], [-71.443338, 44.249172], [-71.415898, 44.212169], [-71.426507, 44.210903], [-71.413171, 44.167462], [-71.387138, 44.155201], [-71.376518, 44.11887], [-71.376488, 44.104069], [-71.38163, 44.097874], [-71.366355, 44.068524], [-71.346656, 44.068822], [-71.37571, 44.030561], [-71.383613, 44.022611], [-71.361965, 43.915938], [-71.564603, 43.893172], [-71.543805, 43.796043], [-71.538021, 43.796478], [-71.521389, 43.697801], [-71.648346, 43.684511], [-71.651214, 43.680551], [-71.649032, 43.670724], [-71.655121, 43.661264], [-71.650772, 43.643991], [-71.653671, 43.641199], [-71.652222, 43.636667], [-71.657074, 43.630838], [-71.651153, 43.621119], [-71.665054, 43.613573], [-71.665436, 43.611651], [-71.662643, 43.60692], [-71.663452, 43.60496], [-71.67041, 43.604571], [-71.686875, 43.595263], [-71.70334, 43.594614], [-71.708635, 43.601168], [-71.714937, 43.599825], [-71.719744, 43.595278], [-71.728121, 43.594904], [-71.731355, 43.591321], [-71.731234, 43.588145], [-71.723574, 43.585055], [-71.715715, 43.578234], [-71.718004, 43.574038], [-71.72481, 43.57059], [-71.724214, 43.566371], [-71.726106, 43.56418], [-71.729692, 43.563777], [-71.730517, 43.564738], [-71.728533, 43.565951], [-71.735827, 43.569316], [-71.742968, 43.568019], [-71.744723, 43.565158], [-71.749041, 43.567546], [-71.755481, 43.565447], [-71.76102, 43.567729], [-71.7775, 43.552501], [-71.78255, 43.56058], [-71.786274, 43.561496], [-71.793064, 43.558375], [-71.797856, 43.559382], [-71.803868, 43.552851], [-71.807927, 43.552913], [-71.810536, 43.550555], [-71.815144, 43.550921], [-71.818059, 43.548381], [-71.816243, 43.546641], [-71.817921, 43.544208], [-71.849203, 43.6112]]]}}, {"type": "Feature", "properties": {"name": "Sullivan County", "students": 342, "pop": 5834, "acsPriv": 936, "seats": 500}, "geometry": {"type": "Polygon", "coordinates": [[[-72.208313, 43.585207], [-72.106412, 43.553485], [-72.120176, 43.538302], [-72.090893, 43.528857], [-72.069516, 43.553172], [-72.067165, 43.543971], [-71.93531, 43.52888], [-71.958871, 43.503055], [-71.999561, 43.453702], [-72.011363, 43.436871], [-72.053752, 43.441097], [-72.057995, 43.422917], [-72.04681, 43.410862], [-72.050304, 43.378278], [-72.090146, 43.322553], [-72.065442, 43.25508], [-72.045284, 43.254767], [-72.041545, 43.222724], [-72.009074, 43.187882], [-72.036845, 43.182471], [-72.023478, 43.160125], [-72.038149, 43.128807], [-72.178497, 43.131866], [-72.173202, 43.148956], [-72.156661, 43.181968], [-72.332139, 43.162842], [-72.330326, 43.155166], [-72.376424, 43.15773], [-72.372045, 43.132118], [-72.431632, 43.135635], [-72.43209, 43.15982], [-72.452251, 43.161354], [-72.452919, 43.172198], [-72.451515, 43.174491], [-72.444907, 43.178107], [-72.443854, 43.180411], [-72.450486, 43.192664], [-72.438224, 43.202918], [-72.441047, 43.218192], [-72.434165, 43.231909], [-72.439506, 43.244307], [-72.43714, 43.256056], [-72.433005, 43.259215], [-72.421561, 43.263373], [-72.416037, 43.270231], [-72.408891, 43.281967], [-72.402792, 43.302442], [-72.395315, 43.312696], [-72.397223, 43.317007], [-72.40264, 43.32047], [-72.410559, 43.331121], [-72.400701, 43.346044], [-72.389868, 43.356572], [-72.392233, 43.35793], [-72.403082, 43.357747], [-72.412649, 43.362279], [-72.415228, 43.365605], [-72.416022, 43.377164], [-72.413397, 43.383481], [-72.403509, 43.391583], [-72.399939, 43.415135], [-72.396276, 43.426937], [-72.395816, 43.43749], [-72.390371, 43.450909], [-72.392569, 43.466884], [-72.383032, 43.475139], [-72.381475, 43.48003], [-72.379947, 43.490685], [-72.381063, 43.494037], [-72.385106, 43.500698], [-72.397299, 43.508998], [-72.398871, 43.512653], [-72.394262, 43.5274], [-72.390417, 43.52756], [-72.387655, 43.529635], [-72.380697, 43.540355], [-72.380712, 43.550708], [-72.382986, 43.563418], [-72.381338, 43.565661], [-72.380147, 43.564974], [-72.38001, 43.573885], [-72.372488, 43.579951], [-72.356221, 43.586611], [-72.349644, 43.587817], [-72.329899, 43.600214], [-72.208313, 43.585207]]]}}, {"type": "Feature", "properties": {"name": "Cheshire County", "students": 847, "pop": 10309, "acsPriv": 2030, "seats": 1194}, "geometry": {"type": "Polygon", "coordinates": [[[-72.057949, 43.018922], [-72.062222, 42.944796], [-72.00619, 42.943789], [-71.97471, 42.789402], [-71.944283, 42.78841], [-71.928993, 42.712102], [-72.458412, 42.726933], [-72.464225, 42.737309], [-72.473366, 42.746235], [-72.476952, 42.760769], [-72.485314, 42.766278], [-72.490547, 42.772747], [-72.497704, 42.773365], [-72.499581, 42.768811], [-72.50837, 42.764401], [-72.51307, 42.764073], [-72.515466, 42.765629], [-72.516473, 42.769123], [-72.509286, 42.775013], [-72.508737, 42.779522], [-72.516258, 42.787972], [-72.541513, 42.807094], [-72.542429, 42.815647], [-72.54658, 42.825199], [-72.547358, 42.839549], [-72.557078, 42.852863], [-72.55427, 42.860614], [-72.555415, 42.874667], [-72.552622, 42.885043], [-72.54072, 42.889285], [-72.53338, 42.895312], [-72.531336, 42.898188], [-72.530359, 42.911074], [-72.524499, 42.915148], [-72.527078, 42.928347], [-72.526941, 42.941378], [-72.528528, 42.945505], [-72.534189, 42.948847], [-72.533808, 42.952585], [-72.518365, 42.963137], [-72.49218, 42.967676], [-72.481636, 42.973955], [-72.476311, 42.971498], [-72.473717, 42.972124], [-72.4617, 42.982871], [-72.465416, 42.989633], [-72.462516, 42.997445], [-72.458702, 43.000863], [-72.449409, 43.000322], [-72.445045, 43.003885], [-72.443259, 43.007577], [-72.44506, 43.011094], [-72.458076, 43.018304], [-72.462623, 43.025788], [-72.46038, 43.041383], [-72.466225, 43.04757], [-72.467857, 43.052514], [-72.46447, 43.056962], [-72.455253, 43.062722], [-72.45037, 43.068436], [-72.444343, 43.071618], [-72.433982, 43.08445], [-72.438376, 43.090836], [-72.443214, 43.10276], [-72.441413, 43.105949], [-72.433478, 43.110588], [-72.43267, 43.119812], [-72.442298, 43.129303], [-72.440803, 43.136627], [-72.452095, 43.13858], [-72.457222, 43.146499], [-72.456565, 43.149467], [-72.45211, 43.153228], [-72.452251, 43.161354], [-72.43209, 43.15982], [-72.431632, 43.135635], [-72.372045, 43.132118], [-72.376424, 43.15773], [-72.330326, 43.155166], [-72.332139, 43.162842], [-72.156661, 43.181968], [-72.173202, 43.148956], [-72.178497, 43.131866], [-72.034083, 43.128746], [-72.043499, 43.081993], [-72.041972, 43.082238], [-72.057949, 43.018922]]]}}, {"type": "Feature", "properties": {"name": "Coos County", "students": 271, "pop": 3817, "acsPriv": 360, "seats": 96}, "geometry": {"type": "Polygon", "coordinates": [[[-71.098541, 44.235439], [-71.251957, 44.244266], [-71.306036, 44.137272], [-71.30245, 44.137402], [-71.311758, 44.091756], [-71.324103, 44.091596], [-71.335882, 44.085752], [-71.343588, 44.092054], [-71.343223, 44.123471], [-71.356482, 44.165836], [-71.384239, 44.178844], [-71.394874, 44.214679], [-71.415898, 44.212169], [-71.443338, 44.249172], [-71.469706, 44.259936], [-71.50584, 44.255557], [-71.507412, 44.262897], [-71.575819, 44.254596], [-71.587004, 44.304759], [-71.686921, 44.336581], [-71.696885, 44.332118], [-71.765684, 44.406295], [-71.756091, 44.406401], [-71.748461, 44.401438], [-71.743726, 44.401027], [-71.735413, 44.410005], [-71.725743, 44.410964], [-71.714279, 44.409545], [-71.70258, 44.413542], [-71.69413, 44.419391], [-71.684285, 44.423645], [-71.682701, 44.42734], [-71.676967, 44.426848], [-71.675951, 44.428906], [-71.679282, 44.434337], [-71.677962, 44.435255], [-71.665546, 44.436712], [-71.660883, 44.439937], [-71.657756, 44.445552], [-71.656371, 44.455159], [-71.654217, 44.458823], [-71.651693, 44.460872], [-71.644266, 44.46025], [-71.638986, 44.464411], [-71.639627, 44.466351], [-71.646977, 44.469945], [-71.646837, 44.473202], [-71.634615, 44.480462], [-71.632782, 44.483796], [-71.626861, 44.484025], [-71.624663, 44.481744], [-71.627638, 44.479676], [-71.63423, 44.478844], [-71.634505, 44.475625], [-71.631789, 44.474023], [-71.626205, 44.474466], [-71.617843, 44.485841], [-71.609526, 44.4842], [-71.598601, 44.486825], [-71.595213, 44.493409], [-71.593885, 44.501031], [-71.591017, 44.501107], [-71.58943, 44.498223], [-71.58592, 44.49936], [-71.588133, 44.506585], [-71.585768, 44.506188], [-71.582929, 44.502198], [-71.577024, 44.502061], [-71.576948, 44.504312], [-71.582853, 44.50818], [-71.586302, 44.514672], [-71.591932, 44.517907], [-71.594114, 44.521554], [-71.592587, 44.523261], [-71.586286, 44.522347], [-71.580747, 44.524598], [-71.573499, 44.533143], [-71.571867, 44.537919], [-71.576642, 44.542359], [-71.598586, 44.554795], [-71.596968, 44.559471], [-71.594938, 44.56292], [-71.589578, 44.565737], [-71.576124, 44.565079], [-71.568235, 44.56276], [-71.559717, 44.563975], [-71.558225, 44.565377], [-71.559156, 44.568138], [-71.557711, 44.570404], [-71.551312, 44.569115], [-71.547726, 44.571381], [-71.554806, 44.579369], [-71.552365, 44.584393], [-71.550259, 44.583794], [-71.551679, 44.58078], [-71.549664, 44.578323], [-71.545788, 44.577934], [-71.538464, 44.582131], [-71.534939, 44.5877], [-71.540051, 44.588524], [-71.537869, 44.592262], [-71.538494, 44.59417], [-71.546893, 44.590837], [-71.545972, 44.59713], [-71.555188, 44.593346], [-71.554151, 44.597961], [-71.55061, 44.599693], [-71.550946, 44.60102], [-71.557279, 44.599381], [-71.562131, 44.601181], [-71.561764, 44.603134], [-71.555859, 44.603706], [-71.553631, 44.606132], [-71.556546, 44.617744], [-71.555127, 44.625244], [-71.547863, 44.622245], [-71.546337, 44.622955], [-71.548001, 44.625137], [-71.556927, 44.627418], [-71.557019, 44.629486], [-71.554486, 44.629532], [-71.552104, 44.627314], [-71.546931, 44.62855], [-71.546819, 44.629756], [-71.553756, 44.630426], [-71.563721, 44.637247], [-71.563775, 44.638943], [-71.559704, 44.639298], [-71.55779, 44.64196], [-71.561962, 44.647189], [-71.562806, 44.652356], [-71.565794, 44.653852], [-71.569025, 44.65029], [-71.577081, 44.650686], [-71.580071, 44.652099], [-71.575259, 44.653102], [-71.575215, 44.65583], [-71.582722, 44.655891], [-71.587365, 44.659715], [-71.584933, 44.664054], [-71.587877, 44.669932], [-71.581463, 44.673204], [-71.596615, 44.678088], [-71.593959, 44.683425], [-71.597937, 44.692222], [-71.593861, 44.696415], [-71.60077, 44.699017], [-71.598589, 44.703241], [-71.599392, 44.705315], [-71.605014, 44.70841], [-71.60852, 44.713956], [-71.612512, 44.716673], [-71.612548, 44.719186], [-71.618644, 44.722193], [-71.617107, 44.728712], [-71.623583, 44.727316], [-71.626093, 44.728543], [-71.624936, 44.736811], [-71.626411, 44.74051], [-71.625092, 44.743361], [-71.62733, 44.747331], [-71.631382, 44.748693], [-71.632114, 44.751618], [-71.629919, 44.753578], [-71.616669, 44.756299], [-71.612856, 44.758998], [-71.611355, 44.765329], [-71.606213, 44.766819], [-71.600547, 44.772934], [-71.595099, 44.775405], [-71.595641, 44.779312], [-71.592486, 44.782669], [-71.579182, 44.784936], [-71.572817, 44.790871], [-71.57116, 44.794314], [-71.5728, 44.799206], [-71.568384, 44.80704], [-71.576417, 44.81273], [-71.576865, 44.815197], [-71.573151, 44.820823], [-71.565314, 44.8241], [-71.561836, 44.823625], [-71.557254, 44.833873], [-71.551114, 44.836965], [-71.551577, 44.842757], [-71.555794, 44.848567], [-71.547452, 44.855398], [-71.549451, 44.862084], [-71.545923, 44.865932], [-71.532911, 44.870222], [-71.528751, 44.873494], [-71.528372, 44.877712], [-71.522577, 44.879643], [-71.518956, 44.884664], [-71.516085, 44.884523], [-71.510669, 44.89043], [-71.513883, 44.894311], [-71.508273, 44.89652], [-71.507372, 44.899489], [-71.500523, 44.904713], [-71.49491, 44.904299], [-71.496017, 44.908898], [-71.493169, 44.91137], [-71.499945, 44.911174], [-71.5007, 44.914628], [-71.50438, 44.919183], [-71.512496, 44.926203], [-71.515723, 44.927232], [-71.513222, 44.929211], [-71.515868, 44.931715], [-71.516228, 44.935158], [-71.522838, 44.939915], [-71.521297, 44.940625], [-71.519896, 44.938488], [-71.517068, 44.939117], [-71.51479, 44.943695], [-71.517795, 44.944994], [-71.516758, 44.948417], [-71.519241, 44.94962], [-71.515857, 44.952758], [-71.515001, 44.958597], [-71.516321, 44.964478], [-71.523709, 44.964277], [-71.517955, 44.967655], [-71.52292, 44.966156], [-71.522197, 44.969456], [-71.525525, 44.969624], [-71.527447, 44.973187], [-71.531179, 44.975015], [-71.532971, 44.979893], [-71.537197, 44.980732], [-71.536755, 44.983899], [-71.541516, 44.984768], [-71.538647, 44.987256], [-71.538433, 44.989704], [-71.533138, 44.990857], [-71.537152, 44.993252], [-71.530403, 44.999364], [-71.514036, 45.004384], [-71.508784, 45.007844], [-71.50437, 45.008273], [-71.498417, 45.003944], [-71.495343, 45.004602], [-71.488281, 45.000739], [-71.486495, 45.002131], [-71.480552, 45.002334], [-71.476348, 45.009426], [-71.465065, 45.012918], [-71.501082, 45.013347], [-71.499535, 45.014869], [-71.501396, 45.017511], [-71.499356, 45.018323], [-71.500872, 45.019348], [-71.498559, 45.020235], [-71.500074, 45.020088], [-71.500156, 45.023486], [-71.497113, 45.023601], [-71.500137, 45.026079], [-71.497975, 45.026544], [-71.498686, 45.028304], [-71.497156, 45.028635], [-71.496272, 45.031749], [-71.494147, 45.031492], [-71.494812, 45.033065], [-71.492549, 45.033548], [-71.490954, 45.043167], [-71.493276, 45.045773], [-71.503119, 45.045204], [-71.504515, 45.046078], [-71.503163, 45.04811], [-71.504614, 45.04709], [-71.50645, 45.048482], [-71.504388, 45.052374], [-71.499591, 45.052481], [-71.500198, 45.054072], [-71.497202, 45.055801], [-71.49908, 45.056431], [-71.497561, 45.057487], [-71.500926, 45.057527], [-71.501266, 45.058725], [-71.497103, 45.060116], [-71.495667, 45.064754], [-71.498042, 45.070187], [-71.49567, 45.068847], [-71.49443, 45.071314], [-71.487757, 45.071373], [-71.489282, 45.073723], [-71.486366, 45.075636], [-71.487286, 45.078674], [-71.48263, 45.078999], [-71.479964, 45.081627], [-71.481189, 45.082907], [-71.478119, 45.084342], [-71.476985, 45.082922], [-71.475164, 45.084237], [-71.467878, 45.083651], [-71.464389, 45.09335], [-71.458349, 45.095158], [-71.459438, 45.09655], [-71.458452, 45.098826], [-71.449292, 45.104469], [-71.45108, 45.105105], [-71.448698, 45.107886], [-71.450609, 45.109171], [-71.448787, 45.112567], [-71.440334, 45.113689], [-71.438616, 45.117265], [-71.428385, 45.123672], [-71.429076, 45.124715], [-71.426096, 45.129466], [-71.432423, 45.138004], [-71.437604, 45.141876], [-71.435392, 45.141872], [-71.433266, 45.148313], [-71.426399, 45.152675], [-71.426242, 45.156009], [-71.424844, 45.156732], [-71.425727, 45.157751], [-71.423494, 45.160674], [-71.423437, 45.16464], [-71.424931, 45.165837], [-71.418452, 45.17053], [-71.41737, 45.174863], [-71.414103, 45.178989], [-71.415746, 45.180685], [-71.414416, 45.184786], [-71.40694, 45.189948], [-71.407421, 45.191562], [-71.404198, 45.194967], [-71.405856, 45.197701], [-71.399974, 45.200325], [-71.397342, 45.203518], [-71.403122, 45.215299], [-71.415811, 45.218357], [-71.417412, 45.221746], [-71.420738, 45.223847], [-71.426393, 45.225179], [-71.4405, 45.235005], [-71.443512, 45.234799], [-71.442818, 45.238292], [-71.434222, 45.238415], [-71.429633, 45.235969], [-71.429127, 45.233961], [-71.421051, 45.232203], [-71.416821, 45.235781], [-71.413005, 45.235841], [-71.411922, 45.238725], [-71.408516, 45.239292], [-71.407446, 45.241217], [-71.402145, 45.242598], [-71.396356, 45.241852], [-71.389263, 45.234954], [-71.384137, 45.233509], [-71.378341, 45.243492], [-71.362772, 45.248302], [-71.356539, 45.253897], [-71.359334, 45.262094], [-71.363213, 45.266738], [-71.360278, 45.270332], [-71.353455, 45.268605], [-71.347682, 45.272016], [-71.342347, 45.271259], [-71.336412, 45.272742], [-71.330802, 45.280279], [-71.320833, 45.28192], [-71.315424, 45.286594], [-71.307588, 45.287485], [-71.30053, 45.296649], [-71.296234, 45.299144], [-71.290967, 45.298711], [-71.287913, 45.300908], [-71.285792, 45.300363], [-71.284224, 45.302359], [-71.280517, 45.294588], [-71.272688, 45.296572], [-71.264948, 45.293792], [-71.266177, 45.291441], [-71.262975, 45.277432], [-71.259627, 45.274574], [-71.259392, 45.272033], [-71.256405, 45.273196], [-71.24947, 45.26802], [-71.245615, 45.268799], [-71.239187, 45.263335], [-71.23942, 45.261667], [-71.235591, 45.260907], [-71.23133, 45.253903], [-71.23311, 45.251522], [-71.230614, 45.249417], [-71.228261, 45.249379], [-71.222103, 45.253363], [-71.220628, 45.250735], [-71.212657, 45.250119], [-71.202503, 45.254319], [-71.196429, 45.254052], [-71.195137, 45.251266], [-71.191185, 45.249404], [-71.191031, 45.247881], [-71.187733, 45.247618], [-71.186887, 45.244387], [-71.183965, 45.244941], [-71.182396, 45.240635], [-71.180101, 45.239937], [-71.173203, 45.246315], [-71.168822, 45.246272], [-71.162331, 45.250346], [-71.14857, 45.24287], [-71.14756, 45.239435], [-71.143511, 45.242551], [-71.13291, 45.244512], [-71.127944, 45.25369], [-71.124117, 45.255138], [-71.123898, 45.258391], [-71.119545, 45.26162], [-71.120201, 45.265142], [-71.116434, 45.26944], [-71.11631, 45.274085], [-71.110096, 45.275709], [-71.106365, 45.280009], [-71.105444, 45.282799], [-71.109174, 45.282347], [-71.110989, 45.284377], [-71.106555, 45.291087], [-71.104189, 45.291517], [-71.10528, 45.294875], [-71.098252, 45.300224], [-71.098201, 45.301673], [-71.084719, 45.305698], [-71.077173, 45.250048], [-71.058247, 44.990515], [-71.03839, 44.766982], [-71.009976, 44.284899], [-71.044385, 44.283778], [-71.043668, 44.274928], [-71.042112, 44.274943], [-71.04228, 44.237514], [-71.070357, 44.237537], [-71.098541, 44.235439]]]}}, {"type": "Feature", "properties": {"name": "Merrimack County", "students": 1450, "pop": 21721, "acsPriv": 2631, "seats": 1799}, "geometry": {"type": "Polygon", "coordinates": [[[-71.471454, 43.411298], [-71.236011, 43.284994], [-71.246967, 43.276189], [-71.252079, 43.263975], [-71.262801, 43.250065], [-71.315237, 43.162467], [-71.317709, 43.162399], [-71.329443, 43.14064], [-71.356117, 43.102043], [-71.392235, 43.039285], [-71.402962, 43.041054], [-71.396309, 43.016892], [-71.392388, 43.009309], [-71.449962, 43.020069], [-71.454783, 43.044], [-71.473981, 43.035274], [-71.483576, 43.04171], [-71.489109, 43.051779], [-71.512767, 43.049615], [-71.517467, 43.068909], [-71.641291, 43.054168], [-71.667771, 43.152534], [-71.8561, 43.115135], [-71.913215, 43.207099], [-72.009074, 43.187882], [-72.041545, 43.222724], [-72.045284, 43.254767], [-72.065442, 43.25508], [-72.090146, 43.322553], [-72.050304, 43.378278], [-72.04681, 43.410862], [-72.057995, 43.422917], [-72.053752, 43.441097], [-72.011363, 43.436871], [-71.999561, 43.453702], [-71.958871, 43.503055], [-71.928368, 43.536777], [-71.892112, 43.574618], [-71.849203, 43.6112], [-71.817921, 43.544208], [-71.816243, 43.546641], [-71.818059, 43.548381], [-71.815144, 43.550921], [-71.810536, 43.550555], [-71.807927, 43.552913], [-71.803868, 43.552851], [-71.797856, 43.559382], [-71.793064, 43.558375], [-71.786274, 43.561496], [-71.78255, 43.56058], [-71.7775, 43.552501], [-71.76102, 43.567729], [-71.755481, 43.565447], [-71.749041, 43.567546], [-71.744723, 43.565158], [-71.741618, 43.568568], [-71.735827, 43.569316], [-71.733797, 43.567614], [-71.730898, 43.567904], [-71.72835, 43.565699], [-71.730364, 43.564349], [-71.727573, 43.563411], [-71.729128, 43.561747], [-71.727891, 43.558779], [-71.7222, 43.552958], [-71.71425, 43.550356], [-71.708253, 43.539042], [-71.687944, 43.528614], [-71.687241, 43.5255], [-71.691346, 43.515842], [-71.680314, 43.505893], [-71.677293, 43.500491], [-71.655548, 43.492527], [-71.653442, 43.490261], [-71.653351, 43.487575], [-71.638046, 43.491756], [-71.630019, 43.477359], [-71.627608, 43.478069], [-71.624114, 43.469852], [-71.629019, 43.468572], [-71.62503, 43.459504], [-71.628148, 43.458556], [-71.619979, 43.443867], [-71.615645, 43.443356], [-71.612838, 43.43813], [-71.60472, 43.440723], [-71.600096, 43.434971], [-71.595045, 43.438068], [-71.595365, 43.441143], [-71.592817, 43.443256], [-71.587294, 43.441715], [-71.585081, 43.444477], [-71.579984, 43.444332], [-71.5753, 43.446545], [-71.569669, 43.452236], [-71.561459, 43.450466], [-71.561551, 43.454456], [-71.55647, 43.455275], [-71.471454, 43.411298]]]}}, {"type": "Feature", "properties": {"name": "Carroll County", "students": 289, "pop": 5991, "acsPriv": 751, "seats": 74}, "geometry": {"type": "Polygon", "coordinates": [[[-71.426507, 44.210903], [-71.394874, 44.214679], [-71.384239, 44.178844], [-71.356482, 44.165836], [-71.343223, 44.123471], [-71.343588, 44.092054], [-71.335882, 44.085752], [-71.324103, 44.091596], [-71.311758, 44.091756], [-71.30245, 44.137402], [-71.306036, 44.137272], [-71.251957, 44.244266], [-71.098541, 44.235439], [-71.070357, 44.237537], [-71.04228, 44.237514], [-71.042112, 44.274943], [-71.043668, 44.274928], [-71.044385, 44.283778], [-71.009976, 44.284899], [-70.993328, 43.929793], [-70.98904, 43.790138], [-70.983461, 43.734177], [-70.972774, 43.570512], [-70.969896, 43.568554], [-70.966712, 43.569437], [-70.96283, 43.563394], [-70.957253, 43.561338], [-70.954903, 43.554045], [-70.950632, 43.551313], [-70.953633, 43.544167], [-70.953504, 43.540603], [-70.955913, 43.542094], [-70.958797, 43.540599], [-70.962536, 43.541301], [-71.024244, 43.482913], [-71.037931, 43.529826], [-71.044523, 43.524798], [-71.046431, 43.529689], [-71.052519, 43.524692], [-71.056426, 43.52811], [-71.063093, 43.52418], [-71.067565, 43.52724], [-71.084838, 43.506686], [-71.089477, 43.512691], [-71.093216, 43.507244], [-71.096939, 43.511684], [-71.102081, 43.506877], [-71.106536, 43.512248], [-71.111496, 43.506709], [-71.127808, 43.572787], [-71.162675, 43.538959], [-71.199465, 43.55913], [-71.203921, 43.552424], [-71.208941, 43.550517], [-71.227909, 43.564715], [-71.258473, 43.571444], [-71.330389, 43.620149], [-71.334754, 43.620783], [-71.338614, 43.625261], [-71.531658, 43.760979], [-71.538021, 43.796478], [-71.543835, 43.796158], [-71.564603, 43.893172], [-71.361965, 43.915938], [-71.383613, 44.022611], [-71.37571, 44.030561], [-71.346656, 44.068822], [-71.366355, 44.068524], [-71.38163, 44.097874], [-71.376488, 44.104069], [-71.376518, 44.11887], [-71.387138, 44.155201], [-71.413171, 44.167462], [-71.426507, 44.210903]]]}}, {"type": "Feature", "properties": {"name": "Rockingham County", "students": 1587, "pop": 44549, "acsPriv": 5440, "seats": 1998}, "geometry": {"type": "Polygon", "coordinates": [[[-70.967018, 42.8688], [-71.031201, 42.859087], [-71.04492, 42.848667], [-71.054005, 42.833282], [-71.064416, 42.806275], [-71.132805, 42.821476], [-71.166647, 42.808881], [-71.18614, 42.790935], [-71.181786, 42.737341], [-71.22383, 42.746484], [-71.245481, 42.742514], [-71.26009, 42.755734], [-71.351035, 42.772183], [-71.349784, 42.773822], [-71.352927, 42.778034], [-71.351524, 42.780506], [-71.352958, 42.783161], [-71.358269, 42.785168], [-71.362434, 42.782963], [-71.364524, 42.785351], [-71.364585, 42.791576], [-71.366172, 42.791966], [-71.360679, 42.798962], [-71.3872, 42.823559], [-71.427067, 42.82484], [-71.451154, 42.9309], [-71.375435, 42.939318], [-71.391889, 43.008182], [-71.396309, 43.016892], [-71.402962, 43.041054], [-71.392235, 43.039285], [-71.356117, 43.102043], [-71.329443, 43.14064], [-71.317709, 43.162399], [-71.315237, 43.162467], [-71.262801, 43.250065], [-71.252079, 43.263975], [-71.247336, 43.275232], [-71.026686, 43.137947], [-71.072936, 43.081681], [-70.980801, 43.082367], [-70.933752, 43.090157], [-70.875436, 43.080422], [-70.864022, 43.087082], [-70.862313, 43.089539], [-70.860665, 43.098282], [-70.862222, 43.109917], [-70.85978, 43.115593], [-70.864205, 43.120376], [-70.86245, 43.124359], [-70.855584, 43.126877], [-70.849526, 43.1269], [-70.837831, 43.119481], [-70.831032, 43.117668], [-70.825779, 43.118027], [-70.820019, 43.122545], [-70.804353, 43.114396], [-70.783864, 43.100959], [-70.779688, 43.096248], [-70.765892, 43.092495], [-70.75617, 43.080073], [-70.743033, 43.077973], [-70.737969, 43.073728], [-70.70631, 43.075339], [-70.701197, 43.04524], [-70.630714, 42.985286], [-70.611152, 42.97899], [-70.587593, 42.949188], [-70.581855, 42.938319], [-70.575094, 42.917126], [-70.592879, 42.913001], [-70.610659, 42.912529], [-70.655109, 42.922099], [-70.667777, 42.927464], [-70.680933, 42.936874], [-70.690547, 42.948239], [-70.694395, 42.956754], [-70.700301, 42.947089], [-70.708993, 42.938146], [-70.726024, 42.928524], [-70.724754, 42.917689], [-70.727303, 42.893617], [-70.735005, 42.874685], [-70.820238, 42.871787], [-70.847718, 42.860867], [-70.885602, 42.882834], [-70.903533, 42.886778], [-70.914631, 42.886648], [-70.929594, 42.885032], [-70.967018, 42.8688]]]}}, {"type": "Feature", "properties": {"name": "Hillsborough County", "students": 3812, "pop": 62304, "acsPriv": 8550, "seats": 3036}, "geometry": {"type": "Polygon", "coordinates": [[[-72.036845, 43.182471], [-71.913215, 43.207099], [-71.8561, 43.115135], [-71.667771, 43.152534], [-71.641291, 43.054168], [-71.517467, 43.068909], [-71.512767, 43.049615], [-71.489109, 43.051779], [-71.483576, 43.04171], [-71.473981, 43.035274], [-71.454783, 43.044], [-71.449962, 43.020069], [-71.392388, 43.009309], [-71.375435, 42.939318], [-71.451154, 42.9309], [-71.427067, 42.82484], [-71.3872, 42.823559], [-71.360679, 42.798962], [-71.366172, 42.791966], [-71.364585, 42.791576], [-71.364524, 42.785351], [-71.362434, 42.782963], [-71.358269, 42.785168], [-71.352958, 42.783161], [-71.351524, 42.780506], [-71.352927, 42.778034], [-71.349784, 42.773822], [-71.351035, 42.772183], [-71.26009, 42.755734], [-71.245481, 42.742514], [-71.267873, 42.726026], [-71.278949, 42.71135], [-71.294637, 42.697042], [-71.928993, 42.712102], [-71.944283, 42.78841], [-71.97471, 42.789402], [-72.00619, 42.943789], [-72.062222, 42.944796], [-72.057949, 43.018922], [-72.041972, 43.082238], [-72.043499, 43.081993], [-72.034083, 43.128746], [-72.038149, 43.128807], [-72.023478, 43.160125], [-72.036845, 43.182471]]]}}, {"type": "Feature", "properties": {"name": "Strafford County", "students": 985, "pop": 17549, "acsPriv": 1835, "seats": 930}, "geometry": {"type": "Polygon", "coordinates": [[[-70.838477, 43.247327], [-70.83744, 43.242308], [-70.827216, 43.24333], [-70.823325, 43.240019], [-70.817826, 43.238156], [-70.815482, 43.233519], [-70.817207, 43.229346], [-70.812263, 43.228674], [-70.809516, 43.225165], [-70.813545, 43.219969], [-70.812614, 43.217719], [-70.816917, 43.21453], [-70.816566, 43.211318], [-70.820671, 43.199492], [-70.819282, 43.192992], [-70.828255, 43.187789], [-70.823569, 43.174239], [-70.827782, 43.170432], [-70.828972, 43.158523], [-70.833534, 43.147811], [-70.82801, 43.128876], [-70.820019, 43.122545], [-70.825779, 43.118027], [-70.831032, 43.117668], [-70.837831, 43.119481], [-70.849526, 43.1269], [-70.855584, 43.126877], [-70.86245, 43.124359], [-70.864205, 43.120376], [-70.85978, 43.115593], [-70.862222, 43.109917], [-70.860879, 43.094956], [-70.864022, 43.087082], [-70.875436, 43.080422], [-70.933752, 43.090157], [-70.980801, 43.082367], [-71.072936, 43.081681], [-71.026686, 43.137947], [-71.247336, 43.275232], [-71.207568, 43.307996], [-71.193224, 43.324163], [-71.159364, 43.355123], [-71.171863, 43.411466], [-71.190799, 43.515033], [-71.153271, 43.547059], [-71.127808, 43.572787], [-71.111496, 43.506709], [-71.106536, 43.512248], [-71.102081, 43.506877], [-71.096939, 43.511684], [-71.093216, 43.507244], [-71.089477, 43.512691], [-71.084838, 43.506686], [-71.067565, 43.52724], [-71.063093, 43.52418], [-71.056426, 43.52811], [-71.052519, 43.524692], [-71.046431, 43.529689], [-71.044523, 43.524798], [-71.037931, 43.529826], [-71.024244, 43.482913], [-70.982082, 43.523608], [-70.966732, 43.537709], [-70.961941, 43.540927], [-70.963802, 43.539371], [-70.962962, 43.535273], [-70.957805, 43.531596], [-70.957073, 43.524585], [-70.953944, 43.522273], [-70.956798, 43.512782], [-70.95454, 43.509708], [-70.957973, 43.508037], [-70.958843, 43.49937], [-70.964336, 43.497142], [-70.964428, 43.49348], [-70.968289, 43.489452], [-70.969418, 43.48563], [-70.967526, 43.480945], [-70.972148, 43.478328], [-70.97604, 43.478428], [-70.970333, 43.473133], [-70.96458, 43.473316], [-70.961116, 43.469188], [-70.960338, 43.466183], [-70.966626, 43.451274], [-70.965896, 43.447794], [-70.961536, 43.443181], [-70.960873, 43.438892], [-70.963024, 43.436489], [-70.968792, 43.434597], [-70.969707, 43.426907], [-70.975612, 43.421887], [-70.981273, 43.420872], [-70.987087, 43.413075], [-70.985913, 43.410481], [-70.986508, 43.403981], [-70.982297, 43.398282], [-70.982663, 43.394574], [-70.987179, 43.393536], [-70.987881, 43.389935], [-70.98547, 43.386349], [-70.985668, 43.379178], [-70.98271, 43.377806], [-70.983549, 43.376333], [-70.981014, 43.373364], [-70.981045, 43.370725], [-70.976482, 43.367207], [-70.97459, 43.363576], [-70.9781, 43.35838], [-70.976024, 43.358365], [-70.972027, 43.354634], [-70.973049, 43.348813], [-70.971414, 43.348769], [-70.970943, 43.350499], [-70.967449, 43.34924], [-70.966503, 43.347806], [-70.968792, 43.34641], [-70.967953, 43.344579], [-70.964306, 43.343221], [-70.96339, 43.340909], [-70.959499, 43.340978], [-70.956233, 43.334111], [-70.95251, 43.333356], [-70.950145, 43.335706], [-70.940181, 43.335424], [-70.937495, 43.337537], [-70.930842, 43.336278], [-70.933955, 43.335363], [-70.931239, 43.333326], [-70.930674, 43.329313], [-70.924204, 43.327299], [-70.926219, 43.325971], [-70.922877, 43.326108], [-70.92483, 43.325017], [-70.924387, 43.32385], [-70.919154, 43.324445], [-70.918254, 43.323057], [-70.920359, 43.32121], [-70.916804, 43.322072], [-70.916361, 43.319692], [-70.911417, 43.319723], [-70.913554, 43.318189], [-70.911798, 43.315733], [-70.9154, 43.315412], [-70.911295, 43.310438], [-70.913813, 43.309408], [-70.912607, 43.307584], [-70.907037, 43.304662], [-70.903726, 43.306287], [-70.901437, 43.302847], [-70.902048, 43.301359], [-70.896341, 43.298551], [-70.89776, 43.29672], [-70.90394, 43.296781], [-70.907435, 43.293646], [-70.906564, 43.292036], [-70.900995, 43.29138], [-70.897318, 43.292722], [-70.896326, 43.292104], [-70.899317, 43.287887], [-70.896738, 43.285345], [-70.8872, 43.28272], [-70.883615, 43.283438], [-70.885843, 43.280813], [-70.882654, 43.278913], [-70.883341, 43.27323], [-70.874291, 43.271856], [-70.870065, 43.266134], [-70.862893, 43.264799], [-70.85746, 43.255812], [-70.85511, 43.255057], [-70.852089, 43.256727], [-70.842827, 43.254225], [-70.83947, 43.251082], [-70.841087, 43.248129], [-70.838477, 43.247327]]]}}, {"type": "Feature", "properties": {"name": "Belknap County", "students": 485, "pop": 8641, "acsPriv": 1251, "seats": 855}, "geometry": {"type": "Polygon", "coordinates": [[[-71.531658, 43.760979], [-71.338614, 43.625261], [-71.334159, 43.620371], [-71.330389, 43.620149], [-71.258473, 43.571444], [-71.227909, 43.564715], [-71.208941, 43.550517], [-71.203921, 43.552424], [-71.199465, 43.55913], [-71.162675, 43.538959], [-71.190799, 43.515033], [-71.171863, 43.411466], [-71.159364, 43.355123], [-71.193224, 43.324163], [-71.207568, 43.307996], [-71.236011, 43.284994], [-71.349967, 43.347066], [-71.555435, 43.454967], [-71.561154, 43.4548], [-71.561459, 43.450466], [-71.569669, 43.452236], [-71.5753, 43.446545], [-71.579984, 43.444332], [-71.585081, 43.444477], [-71.587294, 43.441715], [-71.592817, 43.443256], [-71.595365, 43.441143], [-71.595045, 43.438068], [-71.600096, 43.434971], [-71.60472, 43.440723], [-71.612426, 43.437893], [-71.615645, 43.443356], [-71.619979, 43.443867], [-71.628148, 43.458556], [-71.62503, 43.459504], [-71.629019, 43.468572], [-71.624114, 43.469852], [-71.627608, 43.478069], [-71.630019, 43.477359], [-71.638046, 43.491756], [-71.653351, 43.487575], [-71.653442, 43.490261], [-71.655548, 43.492527], [-71.677293, 43.500491], [-71.680314, 43.505893], [-71.691346, 43.515842], [-71.687241, 43.5255], [-71.687944, 43.528614], [-71.708039, 43.538851], [-71.71425, 43.550356], [-71.7222, 43.552958], [-71.729066, 43.560846], [-71.724214, 43.566371], [-71.72481, 43.57059], [-71.718004, 43.574038], [-71.715715, 43.577898], [-71.721346, 43.583559], [-71.731493, 43.588496], [-71.730959, 43.592104], [-71.728121, 43.594904], [-71.719744, 43.595278], [-71.714937, 43.599825], [-71.708635, 43.601168], [-71.70334, 43.594614], [-71.686875, 43.595263], [-71.67041, 43.604571], [-71.663452, 43.60496], [-71.662643, 43.60692], [-71.665436, 43.611651], [-71.665054, 43.613573], [-71.651153, 43.621119], [-71.657074, 43.630838], [-71.652222, 43.636667], [-71.653671, 43.641199], [-71.650772, 43.643991], [-71.655121, 43.661264], [-71.649032, 43.670724], [-71.651214, 43.680551], [-71.648346, 43.684511], [-71.521389, 43.697801], [-71.531658, 43.760979]]]}}]}