{"type": "FeatureCollection", "features": [{"type": "Feature", "properties": {"zip": "02907", "students": 39, "name": "Zip 02907", "pop": 6252, "acsPriv": 365, "seats": 59}, "geometry": {"type": "Polygon", "coordinates": [[[-71.440572, 41.793747], [-71.440252, 41.803705], [-71.427216, 41.814457], [-71.428406, 41.816917], [-71.422333, 41.817413], [-71.425896, 41.814537], [-71.422104, 41.815601], [-71.417374, 41.813686], [-71.415298, 41.814495], [-71.415937, 41.80862], [-71.417581, 41.807812], [-71.41588, 41.808039], [-71.414642, 41.805161], [-71.419258, 41.804111], [-71.417747, 41.800713], [-71.409447, 41.794], [-71.420063, 41.787033], [-71.416725, 41.785397], [-71.419541, 41.781677], [-71.416687, 41.779404], [-71.418972, 41.775817], [-71.42381, 41.777267], [-71.422132, 41.78186], [-71.422849, 41.786001], [-71.434207, 41.78632], [-71.436836, 41.788738], [-71.434192, 41.790364], [-71.435124, 41.794016], [-71.440572, 41.793747]]]}}, {"type": "Feature", "properties": {"zip": "02909", "students": 51, "name": "Zip 02909", "pop": 8839, "acsPriv": 716, "seats": 0}, "geometry": {"type": "Polygon", "coordinates": [[[-71.472476, 41.834364], [-71.470879, 41.83662], [-71.465553, 41.837004], [-71.465683, 41.840885], [-71.464504, 41.840909], [-71.461502, 41.834015], [-71.456497, 41.832108], [-71.453629, 41.835819], [-71.452202, 41.825237], [-71.44742, 41.826175], [-71.446655, 41.824966], [-71.438312, 41.824514], [-71.435971, 41.826397], [-71.431805, 41.82806], [-71.428596, 41.828558], [-71.433716, 41.827164], [-71.43309, 41.825039], [-71.427963, 41.82703], [-71.425882, 41.825894], [-71.429153, 41.825446], [-71.43364, 41.824219], [-71.429794, 41.824524], [-71.426605, 41.819321], [-71.427483, 41.818256], [-71.426254, 41.817131], [-71.428406, 41.816917], [-71.427216, 41.814457], [-71.429664, 41.813717], [-71.439938, 41.803415], [-71.442223, 41.807203], [-71.460089, 41.804399], [-71.464686, 41.805946], [-71.469165, 41.804864], [-71.466803, 41.8078], [-71.468703, 41.8106], [-71.466551, 41.810742], [-71.469347, 41.818122], [-71.470723, 41.817911], [-71.46965, 41.818876], [-71.470877, 41.821944], [-71.459468, 41.822642], [-71.462285, 41.824455], [-71.46486, 41.831181], [-71.472476, 41.834364]]]}}, {"type": "Feature", "properties": {"zip": "02908", "students": 59, "name": "Zip 02908", "pop": 6049, "acsPriv": 486, "seats": 440}, "geometry": {"type": "Polygon", "coordinates": [[[-71.466949, 41.840477], [-71.458603, 41.845177], [-71.455905, 41.847903], [-71.45614, 41.850727], [-71.448631, 41.852306], [-71.449896, 41.850104], [-71.442391, 41.851054], [-71.439163, 41.854095], [-71.433815, 41.850227], [-71.428825, 41.853676], [-71.426628, 41.853081], [-71.420914, 41.845665], [-71.41229, 41.831468], [-71.41745, 41.832012], [-71.418218, 41.82774], [-71.426337, 41.829004], [-71.432475, 41.827827], [-71.438312, 41.824514], [-71.446655, 41.824966], [-71.44742, 41.826175], [-71.452202, 41.825237], [-71.453629, 41.835819], [-71.457504, 41.832241], [-71.461502, 41.834015], [-71.464504, 41.840909], [-71.465683, 41.840885], [-71.465279, 41.838949], [-71.466949, 41.840477]], [[-71.440498, 41.843094], [-71.42972, 41.841124], [-71.429276, 41.844156], [-71.433043, 41.844464], [-71.432643, 41.84679], [-71.438583, 41.846813], [-71.440498, 41.843094]]]}}, {"type": "Feature", "properties": {"zip": "02831", "students": 1, "name": "Zip 02831", "pop": 493, "acsPriv": 60, "seats": 0}, "geometry": {"type": "Polygon", "coordinates": [[[-71.646634, 41.729289], [-71.643541, 41.734336], [-71.642937, 41.740742], [-71.633254, 41.743404], [-71.628488, 41.741335], [-71.622195, 41.744238], [-71.626188, 41.750152], [-71.621964, 41.753681], [-71.607231, 41.75116], [-71.609718, 41.74876], [-71.609917, 41.746063], [-71.602395, 41.751348], [-71.598576, 41.751311], [-71.596249, 41.754838], [-71.592014, 41.755088], [-71.589415, 41.750428], [-71.570473, 41.760365], [-71.571136, 41.76252], [-71.567795, 41.771152], [-71.569709, 41.779496], [-71.566649, 41.781595], [-71.562313, 41.779916], [-71.557796, 41.780386], [-71.55672, 41.775036], [-71.552388, 41.776723], [-71.548384, 41.770191], [-71.543256, 41.767383], [-71.541127, 41.768398], [-71.540232, 41.766731], [-71.538812, 41.767267], [-71.537753, 41.764874], [-71.547295, 41.762662], [-71.549599, 41.756011], [-71.538364, 41.75663], [-71.537401, 41.752879], [-71.540756, 41.750999], [-71.540245, 41.744793], [-71.5383, 41.740612], [-71.534638, 41.73981], [-71.537794, 41.731597], [-71.539319, 41.734053], [-71.541955, 41.73358], [-71.543843, 41.738809], [-71.544787, 41.736939], [-71.548427, 41.736999], [-71.547974, 41.733875], [-71.549691, 41.734531], [-71.553055, 41.734951], [-71.549124, 41.733761], [-71.550599, 41.731032], [-71.549722, 41.729989], [-71.554597, 41.729886], [-71.555129, 41.731065], [-71.556751, 41.72983], [-71.598222, 41.728822], [-71.604797, 41.726667], [-71.604694, 41.724081], [-71.606583, 41.724392], [-71.616232, 41.716092], [-71.615853, 41.721527], [-71.613958, 41.722107], [-71.637621, 41.724677], [-71.638485, 41.727906], [-71.644913, 41.727789], [-71.646634, 41.729289]]]}}, {"type": "Feature", "properties": {"zip": "02921", "students": 3, "name": "Zip 02921", "pop": 1662, "acsPriv": 210, "seats": 0}, "geometry": {"type": "Polygon", "coordinates": [[[-71.55929, 41.789344], [-71.535027, 41.793297], [-71.513844, 41.788417], [-71.495013, 41.791264], [-71.496694, 41.790216], [-71.496578, 41.786728], [-71.492758, 41.782973], [-71.486881, 41.782779], [-71.478518, 41.785465], [-71.479563, 41.780742], [-71.475334, 41.780071], [-71.48079, 41.778206], [-71.4808, 41.768581], [-71.482124, 41.768486], [-71.479121, 41.767089], [-71.479535, 41.758854], [-71.477028, 41.756931], [-71.480263, 41.755566], [-71.488785, 41.740433], [-71.489029, 41.734959], [-71.491445, 41.734544], [-71.493751, 41.731295], [-71.540803, 41.730127], [-71.537284, 41.731856], [-71.534638, 41.73981], [-71.5383, 41.740612], [-71.540245, 41.744793], [-71.540756, 41.750999], [-71.537401, 41.752879], [-71.538143, 41.756102], [-71.549599, 41.756011], [-71.547295, 41.762662], [-71.537753, 41.764874], [-71.538812, 41.767267], [-71.540232, 41.766731], [-71.541127, 41.768398], [-71.543256, 41.767383], [-71.548384, 41.770191], [-71.552388, 41.776723], [-71.55672, 41.775036], [-71.55929, 41.789344]]]}}, {"type": "Feature", "properties": {"zip": "02852", "students": 7, "name": "Zip 02852", "pop": 3137, "acsPriv": 338, "seats": 363}, "geometry": {"type": "Polygon", "coordinates": [[[-71.522076, 41.602583], [-71.484427, 41.602591], [-71.485384, 41.612872], [-71.487503, 41.613487], [-71.488039, 41.616334], [-71.486001, 41.616935], [-71.486111, 41.619774], [-71.482482, 41.62358], [-71.47132, 41.629076], [-71.472535, 41.632077], [-71.469727, 41.634499], [-71.467388, 41.634309], [-71.462354, 41.63838], [-71.459194, 41.637967], [-71.455236, 41.63463], [-71.45391, 41.630048], [-71.451366, 41.629455], [-71.448444, 41.6333], [-71.449248, 41.636794], [-71.441986, 41.643275], [-71.442617, 41.645712], [-71.432796, 41.651323], [-71.428941, 41.650569], [-71.423884, 41.653888], [-71.417581, 41.654952], [-71.408156, 41.653811], [-71.405116, 41.651918], [-71.404817, 41.63488], [-71.400553, 41.626829], [-71.400654, 41.625238], [-71.405522, 41.622338], [-71.405317, 41.62016], [-71.400046, 41.615991], [-71.403188, 41.6097], [-71.406837, 41.611216], [-71.408155, 41.608866], [-71.410689, 41.6097], [-71.415149, 41.605455], [-71.41302, 41.603788], [-71.402276, 41.603485], [-71.400958, 41.60212], [-71.401871, 41.589917], [-71.405925, 41.584991], [-71.429592, 41.582922], [-71.435914, 41.577674], [-71.435665, 41.571412], [-71.441002, 41.567366], [-71.440357, 41.565007], [-71.431684, 41.562527], [-71.433811, 41.56048], [-71.433305, 41.559116], [-71.429506, 41.559987], [-71.414684, 41.554489], [-71.420033, 41.548826], [-71.424265, 41.548781], [-71.426356, 41.545657], [-71.430174, 41.54589], [-71.431831, 41.547727], [-71.436731, 41.549382], [-71.43775, 41.550706], [-71.438658, 41.550978], [-71.436914, 41.548839], [-71.432493, 41.547549], [-71.432079, 41.545663], [-71.434273, 41.545513], [-71.433246, 41.544726], [-71.437699, 41.539311], [-71.436325, 41.537292], [-71.438774, 41.538757], [-71.438629, 41.535557], [-71.445476, 41.536606], [-71.444161, 41.532584], [-71.445765, 41.529105], [-71.456461, 41.531039], [-71.466125, 41.530025], [-71.465043, 41.522642], [-71.473495, 41.520794], [-71.474358, 41.523117], [-71.477967, 41.525142], [-71.474306, 41.525428], [-71.473033, 41.528073], [-71.470347, 41.52753], [-71.471919, 41.52981], [-71.475869, 41.528836], [-71.47627, 41.531211], [-71.47424, 41.534853], [-71.479909, 41.537668], [-71.484525, 41.538018], [-71.489269, 41.542146], [-71.489609, 41.539619], [-71.492843, 41.538908], [-71.492124, 41.545213], [-71.497334, 41.541773], [-71.498028, 41.538614], [-71.501442, 41.540718], [-71.519493, 41.544415], [-71.51812, 41.592208], [-71.522076, 41.602583]]]}}, {"type": "Feature", "properties": {"zip": "02881", "students": 2, "name": "Zip 02881", "pop": 348, "acsPriv": 1, "seats": 0}, "geometry": {"type": "Polygon", "coordinates": [[[-71.548855, 41.467051], [-71.544796, 41.47001], [-71.538339, 41.479501], [-71.54293, 41.480169], [-71.541564, 41.487638], [-71.538991, 41.491711], [-71.536171, 41.49173], [-71.533112, 41.500166], [-71.520549, 41.498408], [-71.519506, 41.502121], [-71.51213, 41.500812], [-71.509876, 41.484133], [-71.508263, 41.482167], [-71.506064, 41.482385], [-71.518388, 41.480574], [-71.517734, 41.478388], [-71.513825, 41.478389], [-71.513874, 41.47558], [-71.509511, 41.476137], [-71.509361, 41.474025], [-71.507256, 41.473731], [-71.510657, 41.471007], [-71.509587, 41.469384], [-71.513614, 41.469816], [-71.512644, 41.473198], [-71.515007, 41.472816], [-71.520483, 41.471328], [-71.520474, 41.469239], [-71.538777, 41.466484], [-71.539638, 41.463284], [-71.542387, 41.463484], [-71.542349, 41.461571], [-71.54458, 41.461765], [-71.545036, 41.460396], [-71.548855, 41.467051]]]}}, {"type": "Feature", "properties": {"zip": "02882", "students": 1, "name": "Zip 02882", "pop": 1062, "acsPriv": 85, "seats": 88}, "geometry": {"type": "Polygon", "coordinates": [[[-71.522706, 41.376815], [-71.514952, 41.374481], [-71.516465, 41.372585], [-71.516465, 41.371819], [-71.516334, 41.369605], [-71.514702, 41.365417], [-71.516325, 41.372573], [-71.514369, 41.374585], [-71.514268, 41.375671], [-71.517312, 41.382136], [-71.514516, 41.384906], [-71.504827, 41.407512], [-71.503202, 41.417601], [-71.497101, 41.417502], [-71.495801, 41.422601], [-71.49265, 41.422427], [-71.493766, 41.427596], [-71.485485, 41.425227], [-71.484786, 41.428017], [-71.488548, 41.430187], [-71.485069, 41.43153], [-71.489991, 41.431714], [-71.48961, 41.432013], [-71.466022, 41.442563], [-71.451617, 41.453157], [-71.451034, 41.462205], [-71.4484, 41.468401], [-71.4496, 41.472401], [-71.44655, 41.48947], [-71.447691, 41.494865], [-71.437721, 41.495121], [-71.438049, 41.492046], [-71.435829, 41.492092], [-71.430321, 41.492359], [-71.430565, 41.495213], [-71.421242, 41.49543], [-71.420859, 41.492862], [-71.418121, 41.49203], [-71.419228, 41.485425], [-71.416582, 41.478055], [-71.419083, 41.467964], [-71.421248, 41.467829], [-71.423954, 41.471885], [-71.429307, 41.470578], [-71.427984, 41.46215], [-71.424255, 41.455931], [-71.425097, 41.452911], [-71.427923, 41.452551], [-71.431162, 41.444434], [-71.43401, 41.443829], [-71.432926, 41.441869], [-71.438772, 41.438008], [-71.441658, 41.437715], [-71.443281, 41.440465], [-71.455691, 41.432743], [-71.453842, 41.43115], [-71.45445, 41.424221], [-71.451468, 41.418119], [-71.451615, 41.408693], [-71.454865, 41.406783], [-71.45451, 41.404821], [-71.460798, 41.400881], [-71.460726, 41.396379], [-71.463334, 41.394262], [-71.466692, 41.394021], [-71.472692, 41.387107], [-71.473352, 41.383463], [-71.480919, 41.37152], [-71.481039, 41.367644], [-71.478097, 41.363183], [-71.479464, 41.35989], [-71.497059, 41.356826], [-71.506006, 41.351824], [-71.512011, 41.352275], [-71.516695, 41.358539], [-71.519877, 41.370437], [-71.517656, 41.373998], [-71.52343, 41.375887], [-71.522706, 41.376815]]]}}, {"type": "Feature", "properties": {"zip": "02910", "students": 27, "name": "Zip 02910", "pop": 3478, "acsPriv": 391, "seats": 0}, "geometry": {"type": "Polygon", "coordinates": [[[-71.457245, 41.784039], [-71.456061, 41.787147], [-71.448359, 41.793258], [-71.435124, 41.794016], [-71.434192, 41.790364], [-71.436836, 41.788738], [-71.434207, 41.78632], [-71.422849, 41.786001], [-71.423195, 41.776428], [-71.418972, 41.775817], [-71.417061, 41.780241], [-71.414322, 41.779785], [-71.414749, 41.774693], [-71.412956, 41.77354], [-71.412183, 41.765058], [-71.413971, 41.763124], [-71.41974, 41.761626], [-71.418715, 41.764076], [-71.421312, 41.764879], [-71.427277, 41.76066], [-71.433076, 41.759339], [-71.433775, 41.761441], [-71.438508, 41.757943], [-71.441913, 41.758259], [-71.444896, 41.763547], [-71.454043, 41.770946], [-71.454111, 41.773934], [-71.451507, 41.776491], [-71.456099, 41.78426], [-71.457245, 41.784039]]]}}, {"type": "Feature", "properties": {"zip": "02919", "students": 30, "name": "Zip 02919", "pop": 3484, "acsPriv": 577, "seats": 203}, "geometry": {"type": "Polygon", "coordinates": [[[-71.574642, 41.858748], [-71.55687, 41.860969], [-71.557505, 41.859389], [-71.555585, 41.85864], [-71.554271, 41.859529], [-71.554998, 41.861207], [-71.550423, 41.861765], [-71.548733, 41.860832], [-71.549814, 41.859953], [-71.549626, 41.858069], [-71.548531, 41.858829], [-71.548561, 41.861217], [-71.549385, 41.861937], [-71.495545, 41.868983], [-71.488251, 41.862278], [-71.485636, 41.853519], [-71.481106, 41.851104], [-71.480782, 41.84597], [-71.47764, 41.841469], [-71.477509, 41.83816], [-71.473228, 41.838939], [-71.471702, 41.836108], [-71.472383, 41.834122], [-71.46486, 41.831181], [-71.462285, 41.824455], [-71.459468, 41.822642], [-71.470877, 41.821944], [-71.46965, 41.818876], [-71.470723, 41.817911], [-71.469347, 41.818122], [-71.466551, 41.810742], [-71.468703, 41.8106], [-71.466803, 41.8078], [-71.469165, 41.804864], [-71.463665, 41.805046], [-71.466027, 41.803749], [-71.467716, 41.798032], [-71.471253, 41.798513], [-71.472431, 41.796391], [-71.481102, 41.796566], [-71.489799, 41.791496], [-71.503067, 41.789143], [-71.518188, 41.788746], [-71.535027, 41.793297], [-71.559856, 41.789368], [-71.574642, 41.858748]]]}}, {"type": "Feature", "properties": {"zip": "02896", "students": 2, "name": "Zip 02896", "pop": 1545, "acsPriv": 161, "seats": 0}, "geometry": {"type": "Polygon", "coordinates": [[[-71.606731, 42.01328], [-71.529125, 42.015063], [-71.530476, 42.012122], [-71.529658, 42.009827], [-71.540116, 42.009805], [-71.531754, 41.989574], [-71.517235, 41.983437], [-71.487364, 41.979085], [-71.489096, 41.974743], [-71.486677, 41.969708], [-71.48828, 41.968302], [-71.48644, 41.966243], [-71.487654, 41.963251], [-71.486063, 41.960312], [-71.487313, 41.95848], [-71.48496, 41.956078], [-71.487128, 41.956293], [-71.48815, 41.954685], [-71.48744, 41.947114], [-71.484273, 41.94589], [-71.48452, 41.942719], [-71.488175, 41.944405], [-71.585034, 41.934149], [-71.582481, 41.935728], [-71.581837, 41.939058], [-71.584454, 41.943336], [-71.583434, 41.946421], [-71.585173, 41.948619], [-71.583838, 41.950622], [-71.59082, 41.949491], [-71.593658, 41.950836], [-71.606731, 42.01328]], [[-71.595202, 41.994556], [-71.584981, 41.994872], [-71.579781, 41.999288], [-71.580558, 41.997204], [-71.577835, 41.995792], [-71.576714, 41.996151], [-71.578953, 41.999141], [-71.573391, 41.99817], [-71.570306, 41.999511], [-71.56481, 41.995976], [-71.557029, 41.996647], [-71.559654, 42.00082], [-71.566421, 42.00402], [-71.56685, 41.999709], [-71.568683, 42.000252], [-71.568405, 41.99887], [-71.56998, 41.999679], [-71.573202, 42.000126], [-71.571318, 42.001248], [-71.574523, 42.001618], [-71.573351, 42.000165], [-71.580961, 42.000429], [-71.588107, 41.997228], [-71.588596, 42.001441], [-71.592084, 41.999514], [-71.590203, 41.998135], [-71.590622, 41.995766], [-71.595202, 41.994556]]]}}, {"type": "Feature", "properties": {"zip": "02817", "students": 1, "name": "Zip 02817", "pop": 1016, "acsPriv": 36, "seats": 0}, "geometry": {"type": "Polygon", "coordinates": [[[-71.789247, 41.596847], [-71.787239, 41.656111], [-71.547113, 41.661851], [-71.545013, 41.601916], [-71.643983, 41.600979], [-71.65357, 41.598701], [-71.74332, 41.598657], [-71.789247, 41.596847]]]}}, {"type": "Feature", "properties": {"zip": "02892", "students": 3, "name": "Zip 02892", "pop": 1013, "acsPriv": 122, "seats": 0}, "geometry": {"type": "Polygon", "coordinates": [[[-71.660324, 41.514297], [-71.644438, 41.512497], [-71.639312, 41.525554], [-71.640364, 41.529268], [-71.638795, 41.532098], [-71.639094, 41.536038], [-71.641116, 41.538704], [-71.651726, 41.534653], [-71.652276, 41.536029], [-71.647526, 41.540177], [-71.642445, 41.541372], [-71.643054, 41.544591], [-71.645468, 41.545638], [-71.646159, 41.547904], [-71.644008, 41.552447], [-71.646106, 41.559783], [-71.627401, 41.578655], [-71.625993, 41.578576], [-71.625769, 41.574657], [-71.622198, 41.570413], [-71.620715, 41.564234], [-71.612666, 41.560622], [-71.610301, 41.556858], [-71.60466, 41.559057], [-71.60556, 41.556931], [-71.602798, 41.548084], [-71.609844, 41.546639], [-71.606076, 41.53847], [-71.607095, 41.534096], [-71.605574, 41.526632], [-71.602522, 41.523757], [-71.603376, 41.522706], [-71.530528, 41.503752], [-71.526448, 41.511084], [-71.517864, 41.509096], [-71.517797, 41.501831], [-71.519506, 41.502121], [-71.520549, 41.498408], [-71.533112, 41.500166], [-71.536171, 41.49173], [-71.538991, 41.491711], [-71.539498, 41.489353], [-71.541004, 41.48955], [-71.54293, 41.480169], [-71.538339, 41.479501], [-71.54035, 41.475663], [-71.545327, 41.469466], [-71.555119, 41.462619], [-71.560034, 41.464514], [-71.564315, 41.463998], [-71.565599, 41.465943], [-71.580618, 41.466695], [-71.599527, 41.452684], [-71.595591, 41.448739], [-71.601378, 41.451312], [-71.604279, 41.449741], [-71.609982, 41.452602], [-71.616189, 41.45029], [-71.618471, 41.462189], [-71.620146, 41.461672], [-71.619008, 41.454455], [-71.622221, 41.454605], [-71.621975, 41.452686], [-71.624718, 41.45285], [-71.623557, 41.451317], [-71.625369, 41.449199], [-71.624965, 41.446983], [-71.62871, 41.448031], [-71.630608, 41.446831], [-71.631973, 41.447206], [-71.632518, 41.448799], [-71.632044, 41.447714], [-71.629501, 41.449654], [-71.627925, 41.452939], [-71.628946, 41.454421], [-71.626122, 41.459334], [-71.6282, 41.462569], [-71.628565, 41.46778], [-71.635902, 41.469558], [-71.635167, 41.47879], [-71.639589, 41.478634], [-71.642927, 41.486432], [-71.648971, 41.49098], [-71.64758, 41.495136], [-71.650432, 41.498766], [-71.644278, 41.500986], [-71.652269, 41.502275], [-71.659536, 41.500425], [-71.658554, 41.504398], [-71.660324, 41.514297]]]}}, {"type": "Feature", "properties": {"zip": "02840", "students": 18, "name": "Zip 02840", "pop": 2455, "acsPriv": 543, "seats": 0}, "geometry": {"type": "Polygon", "coordinates": [[[-71.367838, 41.463081], [-71.365373, 41.466981], [-71.350103, 41.473446], [-71.339799, 41.483797], [-71.334632, 41.484195], [-71.333399, 41.482655], [-71.331644, 41.478792], [-71.333032, 41.473811], [-71.326368, 41.478829], [-71.331929, 41.483016], [-71.331702, 41.492489], [-71.326741, 41.495281], [-71.324279, 41.493696], [-71.323662, 41.499264], [-71.322045, 41.499493], [-71.321955, 41.501444], [-71.32309, 41.505562], [-71.325264, 41.506538], [-71.324521, 41.511935], [-71.31929, 41.51336], [-71.321853, 41.517793], [-71.314437, 41.519213], [-71.312369, 41.52103], [-71.311782, 41.517697], [-71.309955, 41.517677], [-71.30185, 41.50612], [-71.284829, 41.487994], [-71.294436, 41.483894], [-71.293647, 41.467575], [-71.300774, 41.464392], [-71.299838, 41.460076], [-71.301926, 41.453386], [-71.306317, 41.450256], [-71.312652, 41.449717], [-71.314229, 41.451446], [-71.312771, 41.455211], [-71.318079, 41.453417], [-71.323586, 41.458004], [-71.325009, 41.455822], [-71.323134, 41.455822], [-71.322099, 41.453302], [-71.327273, 41.450151], [-71.329472, 41.452187], [-71.332981, 41.451575], [-71.332064, 41.449394], [-71.33388, 41.447329], [-71.338262, 41.447278], [-71.340316, 41.450331], [-71.344423, 41.451049], [-71.349489, 41.448022], [-71.359553, 41.446431], [-71.361949, 41.449664], [-71.36277, 41.456283], [-71.366604, 41.4589], [-71.367838, 41.463081]]]}}, {"type": "Feature", "properties": {"zip": "02842", "students": 11, "name": "Zip 02842", "pop": 2566, "acsPriv": 500, "seats": 150}, "geometry": {"type": "Polygon", "coordinates": [[[-71.312751, 41.532968], [-71.307243, 41.54104], [-71.309478, 41.547944], [-71.300985, 41.561528], [-71.265663, 41.538269], [-71.233297, 41.513689], [-71.233334, 41.514941], [-71.230396, 41.512997], [-71.236697, 41.505856], [-71.238881, 41.498365], [-71.245089, 41.490873], [-71.242445, 41.487084], [-71.236697, 41.488118], [-71.234513, 41.485793], [-71.237272, 41.475459], [-71.243479, 41.473135], [-71.244984, 41.470604], [-71.249344, 41.470083], [-71.250857, 41.471875], [-71.250507, 41.476044], [-71.248347, 41.4809], [-71.25562, 41.485216], [-71.26527, 41.487644], [-71.268871, 41.480792], [-71.273984, 41.477393], [-71.278233, 41.478041], [-71.28457, 41.486781], [-71.288347, 41.486837], [-71.284829, 41.487994], [-71.30185, 41.50612], [-71.309955, 41.517677], [-71.311782, 41.517697], [-71.312237, 41.520853], [-71.309837, 41.525047], [-71.312751, 41.532968]]]}}, {"type": "Feature", "properties": {"zip": "02905", "students": 42, "name": "Zip 02905", "pop": 3819, "acsPriv": 596, "seats": 494}, "geometry": {"type": "Polygon", "coordinates": [[[-71.420063, 41.787033], [-71.409447, 41.794], [-71.417747, 41.800713], [-71.419258, 41.804111], [-71.414642, 41.805161], [-71.41588, 41.808039], [-71.417581, 41.807812], [-71.415937, 41.80862], [-71.415298, 41.814495], [-71.412315, 41.813282], [-71.411209, 41.810226], [-71.407181, 41.810818], [-71.407242, 41.806549], [-71.403389, 41.807487], [-71.401855, 41.804043], [-71.393499, 41.8071], [-71.385199, 41.8021], [-71.379999, 41.7953], [-71.373308, 41.791117], [-71.372923, 41.788316], [-71.372278, 41.790131], [-71.370106, 41.786165], [-71.369694, 41.783058], [-71.378198, 41.7844], [-71.376998, 41.7779], [-71.378273, 41.755297], [-71.384733, 41.757602], [-71.388517, 41.763775], [-71.394457, 41.764107], [-71.395886, 41.767038], [-71.399378, 41.768264], [-71.400846, 41.766506], [-71.403849, 41.767845], [-71.412183, 41.765058], [-71.412956, 41.77354], [-71.414749, 41.774693], [-71.41423, 41.779598], [-71.419541, 41.781677], [-71.416725, 41.785397], [-71.420063, 41.787033]]]}}, {"type": "Feature", "properties": {"zip": "02816", "students": 12, "name": "Zip 02816", "pop": 4460, "acsPriv": 488, "seats": 204}, "geometry": {"type": "Polygon", "coordinates": [[[-71.74337, 41.676966], [-71.72702, 41.676441], [-71.719994, 41.678639], [-71.723488, 41.681677], [-71.726906, 41.681285], [-71.727485, 41.682626], [-71.724663, 41.685251], [-71.718323, 41.686495], [-71.713898, 41.689653], [-71.693322, 41.691029], [-71.694122, 41.681221], [-71.689533, 41.684115], [-71.675568, 41.687125], [-71.674217, 41.691196], [-71.670303, 41.692656], [-71.671463, 41.694372], [-71.668999, 41.696617], [-71.668396, 41.699824], [-71.670036, 41.702713], [-71.679747, 41.701532], [-71.680511, 41.70418], [-71.683464, 41.704764], [-71.681373, 41.708181], [-71.674774, 41.710825], [-71.67363, 41.714396], [-71.669037, 41.718884], [-71.664678, 41.719113], [-71.669304, 41.720062], [-71.6717, 41.727331], [-71.638485, 41.727906], [-71.637621, 41.724677], [-71.613958, 41.722107], [-71.615853, 41.721527], [-71.616232, 41.716092], [-71.606583, 41.724392], [-71.604694, 41.724081], [-71.604797, 41.726667], [-71.598222, 41.728822], [-71.556751, 41.72983], [-71.555129, 41.731065], [-71.554597, 41.729886], [-71.548833, 41.729996], [-71.547425, 41.731242], [-71.545963, 41.730092], [-71.534286, 41.730171], [-71.533379, 41.662156], [-71.739624, 41.657352], [-71.738441, 41.666178], [-71.74337, 41.676966]]]}}, {"type": "Feature", "properties": {"zip": "02864", "students": 3, "name": "Zip 02864", "pop": 7014, "acsPriv": 806, "seats": 0}, "geometry": {"type": "Polygon", "coordinates": [[[-71.487243, 41.979211], [-71.459891, 42.00757], [-71.45822, 42.016209], [-71.454035, 42.017848], [-71.381401, 42.018798], [-71.381463, 41.893546], [-71.385932, 41.899591], [-71.394296, 41.897652], [-71.400525, 41.901416], [-71.397496, 41.911367], [-71.40595, 41.911151], [-71.4217, 41.922145], [-71.428729, 41.923823], [-71.430939, 41.926987], [-71.431443, 41.935362], [-71.442885, 41.947656], [-71.45058, 41.949571], [-71.455219, 41.955634], [-71.461781, 41.957415], [-71.464898, 41.969095], [-71.474141, 41.972624], [-71.478657, 41.977141], [-71.487243, 41.979211]]]}}, {"type": "Feature", "properties": {"zip": "02827", "students": 1, "name": "Zip 02827", "pop": 507, "acsPriv": 31, "seats": 0}, "geometry": {"type": "Polygon", "coordinates": [[[-71.789704, 41.725198], [-71.6717, 41.727331], [-71.669304, 41.720062], [-71.664678, 41.719113], [-71.669037, 41.718884], [-71.67363, 41.714396], [-71.674774, 41.710825], [-71.681373, 41.708181], [-71.681671, 41.705806], [-71.683456, 41.704832], [-71.680511, 41.70418], [-71.679747, 41.701532], [-71.670036, 41.702713], [-71.668243, 41.699436], [-71.671463, 41.694372], [-71.670303, 41.692656], [-71.674217, 41.691196], [-71.67498, 41.687842], [-71.677742, 41.685968], [-71.680371, 41.686666], [-71.689533, 41.684115], [-71.694122, 41.681221], [-71.693322, 41.691029], [-71.713898, 41.689653], [-71.718323, 41.686495], [-71.724663, 41.685251], [-71.727485, 41.682626], [-71.726906, 41.681285], [-71.723488, 41.681677], [-71.719994, 41.678639], [-71.72702, 41.676441], [-71.74337, 41.676966], [-71.738441, 41.666178], [-71.739624, 41.657352], [-71.787239, 41.656111], [-71.789704, 41.725198]]]}}, {"type": "Feature", "properties": {"zip": "02914", "students": 9, "name": "Zip 02914", "pop": 2437, "acsPriv": 376, "seats": 465}, "geometry": {"type": "Polygon", "coordinates": [[[-71.395258, 41.811669], [-71.393528, 41.814756], [-71.387083, 41.816372], [-71.373587, 41.832486], [-71.372996, 41.838065], [-71.365139, 41.838641], [-71.362069, 41.834921], [-71.367958, 41.83168], [-71.36132, 41.830555], [-71.35762, 41.827303], [-71.356008, 41.82991], [-71.352386, 41.828938], [-71.351074, 41.83085], [-71.34908, 41.828842], [-71.350096, 41.825724], [-71.348301, 41.824833], [-71.346095, 41.825984], [-71.347545, 41.823246], [-71.339088, 41.805783], [-71.341124, 41.799546], [-71.344824, 41.801204], [-71.34547, 41.798982], [-71.351456, 41.803238], [-71.351982, 41.795567], [-71.36834, 41.798759], [-71.369659, 41.796158], [-71.367142, 41.793961], [-71.373786, 41.790223], [-71.385199, 41.8021], [-71.393499, 41.8071], [-71.395258, 41.811669]]]}}, {"type": "Feature", "properties": {"zip": "02906", "students": 26, "name": "Zip 02906", "pop": 2078, "acsPriv": 1227, "seats": 928}, "geometry": {"type": "Polygon", "coordinates": [[[-71.409828, 41.834953], [-71.404442, 41.836693], [-71.409485, 41.838535], [-71.405357, 41.846252], [-71.403732, 41.846153], [-71.405052, 41.84676], [-71.40303, 41.849976], [-71.400795, 41.849941], [-71.402672, 41.850567], [-71.399456, 41.856786], [-71.374526, 41.857136], [-71.372334, 41.850548], [-71.373587, 41.832486], [-71.385572, 41.818996], [-71.389653, 41.819043], [-71.389608, 41.820663], [-71.391899, 41.820961], [-71.4011, 41.819771], [-71.406281, 41.825252], [-71.406187, 41.826034], [-71.404009, 41.82374], [-71.399205, 41.823017], [-71.399803, 41.825133], [-71.397263, 41.82579], [-71.397232, 41.827579], [-71.401651, 41.827169], [-71.401001, 41.830841], [-71.403263, 41.830711], [-71.403183, 41.827858], [-71.406685, 41.827595], [-71.409214, 41.832444], [-71.408501, 41.834772], [-71.409828, 41.834953]], [[-71.405992, 41.830208], [-71.405228, 41.829582], [-71.404354, 41.830308], [-71.405992, 41.830208]], [[-71.399223, 41.830914], [-71.398193, 41.829418], [-71.394713, 41.830485], [-71.394308, 41.82895], [-71.392166, 41.829369], [-71.394302, 41.833485], [-71.399223, 41.830914]], [[-71.398415, 41.824048], [-71.397589, 41.82314], [-71.395958, 41.82332], [-71.395424, 41.824608], [-71.398415, 41.824048]]]}}, {"type": "Feature", "properties": {"zip": "02863", "students": 6, "name": "Zip 02863", "pop": 3870, "acsPriv": 370, "seats": 0}, "geometry": {"type": "Polygon", "coordinates": [[[-71.407283, 41.891633], [-71.404691, 41.894784], [-71.385932, 41.899591], [-71.381463, 41.893546], [-71.383093, 41.88987], [-71.380219, 41.88793], [-71.380946, 41.884075], [-71.403706, 41.881059], [-71.407283, 41.891633]]]}}, {"type": "Feature", "properties": {"zip": "02891", "students": 5, "name": "Zip 02891", "pop": 2143, "acsPriv": 219, "seats": 0}, "geometry": {"type": "Polygon", "coordinates": [[[-71.893657, 41.326504], [-71.891859, 41.330036], [-71.866538, 41.319185], [-71.857458, 41.320789], [-71.847709, 41.329604], [-71.83728, 41.335068], [-71.829365, 41.342432], [-71.831303, 41.351295], [-71.836044, 41.353988], [-71.837873, 41.360145], [-71.837633, 41.365499], [-71.831844, 41.370344], [-71.832656, 41.37585], [-71.830637, 41.378772], [-71.833527, 41.382264], [-71.83313, 41.387839], [-71.838749, 41.391054], [-71.842209, 41.39538], [-71.841068, 41.399658], [-71.843591, 41.405331], [-71.842426, 41.41026], [-71.839697, 41.412222], [-71.834107, 41.411582], [-71.825384, 41.414687], [-71.82033, 41.419382], [-71.8129, 41.419404], [-71.806812, 41.416673], [-71.803253, 41.417307], [-71.801439, 41.415545], [-71.79647, 41.416379], [-71.796942, 41.411532], [-71.798643, 41.410075], [-71.798082, 41.407978], [-71.79598, 41.407289], [-71.803475, 41.404065], [-71.799736, 41.398564], [-71.794069, 41.397301], [-71.798306, 41.396454], [-71.797223, 41.393209], [-71.790465, 41.392845], [-71.786664, 41.38971], [-71.78379, 41.389664], [-71.783808, 41.386541], [-71.781059, 41.389011], [-71.780314, 41.38694], [-71.77617, 41.385476], [-71.771937, 41.386335], [-71.760128, 41.395189], [-71.752952, 41.398582], [-71.752667, 41.39424], [-71.756602, 41.393103], [-71.762006, 41.383568], [-71.766536, 41.379637], [-71.758975, 41.378462], [-71.758741, 41.379968], [-71.755142, 41.379227], [-71.752037, 41.382484], [-71.748306, 41.383217], [-71.74514, 41.370964], [-71.740189, 41.372826], [-71.737663, 41.377468], [-71.730546, 41.378678], [-71.73014, 41.330458], [-71.751784, 41.324212], [-71.767445, 41.327446], [-71.81329, 41.319314], [-71.834655, 41.31337], [-71.850701, 41.306927], [-71.858448, 41.302039], [-71.860726, 41.302629], [-71.860084, 41.307238], [-71.864294, 41.309221], [-71.870002, 41.3089], [-71.884273, 41.303915], [-71.889625, 41.303915], [-71.886779, 41.32126], [-71.893657, 41.326504]]]}}, {"type": "Feature", "properties": {"zip": "02903", "students": 2, "name": "Zip 02903", "pop": 154, "acsPriv": 64, "seats": 0}, "geometry": {"type": "Polygon", "coordinates": [[[-71.433716, 41.827164], [-71.425285, 41.829148], [-71.418218, 41.82774], [-71.41745, 41.832012], [-71.410629, 41.831528], [-71.406685, 41.827595], [-71.404808, 41.827721], [-71.406977, 41.826253], [-71.4011, 41.819771], [-71.391899, 41.820961], [-71.389608, 41.820663], [-71.389653, 41.819043], [-71.385572, 41.818996], [-71.387083, 41.816372], [-71.393528, 41.814756], [-71.395258, 41.811669], [-71.393499, 41.8071], [-71.401855, 41.804043], [-71.403389, 41.807487], [-71.407242, 41.806549], [-71.407181, 41.810818], [-71.411209, 41.810226], [-71.412315, 41.813282], [-71.414299, 41.813046], [-71.414223, 41.814758], [-71.417374, 41.813686], [-71.422104, 41.815601], [-71.425896, 41.814537], [-71.422333, 41.817413], [-71.426254, 41.817131], [-71.429794, 41.824524], [-71.43364, 41.824219], [-71.425931, 41.826675], [-71.43309, 41.825039], [-71.433716, 41.827164]]]}}, {"type": "Feature", "properties": {"zip": "02857", "students": 1, "name": "Zip 02857", "pop": 1097, "acsPriv": 115, "seats": 0}, "geometry": {"type": "Polygon", "coordinates": [[[-71.726209, 41.855999], [-71.72435, 41.855892], [-71.724899, 41.857262], [-71.719899, 41.8599], [-71.719969, 41.863015], [-71.722917, 41.866839], [-71.721491, 41.86855], [-71.72242, 41.874157], [-71.714107, 41.872267], [-71.713847, 41.874606], [-71.716685, 41.877091], [-71.711922, 41.87952], [-71.70739, 41.880829], [-71.706681, 41.878885], [-71.703377, 41.880234], [-71.699689, 41.873725], [-71.692099, 41.872122], [-71.692543, 41.869446], [-71.682243, 41.872618], [-71.683899, 41.877393], [-71.678389, 41.876273], [-71.675891, 41.873566], [-71.6705, 41.876407], [-71.667217, 41.876143], [-71.668247, 41.883477], [-71.660244, 41.884611], [-71.658664, 41.88169], [-71.652543, 41.883098], [-71.650246, 41.879118], [-71.645585, 41.880347], [-71.642671, 41.879085], [-71.64529, 41.87736], [-71.641673, 41.870502], [-71.635414, 41.867051], [-71.633668, 41.869959], [-71.634728, 41.873985], [-71.640011, 41.878965], [-71.629819, 41.879665], [-71.627141, 41.884939], [-71.623881, 41.883492], [-71.622435, 41.880162], [-71.621186, 41.886563], [-71.623337, 41.888653], [-71.617408, 41.889651], [-71.617053, 41.891815], [-71.611933, 41.892236], [-71.60932, 41.888636], [-71.600112, 41.884838], [-71.60218, 41.883091], [-71.604708, 41.88405], [-71.607994, 41.88271], [-71.602563, 41.878013], [-71.602776, 41.873737], [-71.597629, 41.878242], [-71.594111, 41.877182], [-71.58797, 41.878746], [-71.587507, 41.88006], [-71.58739, 41.877877], [-71.592456, 41.876784], [-71.58857, 41.872322], [-71.585832, 41.875047], [-71.57765, 41.871932], [-71.580046, 41.867016], [-71.576523, 41.867768], [-71.557796, 41.780386], [-71.562313, 41.779916], [-71.566553, 41.781607], [-71.569709, 41.779496], [-71.567795, 41.771152], [-71.571136, 41.76252], [-71.570473, 41.760365], [-71.589415, 41.750428], [-71.592014, 41.755088], [-71.596249, 41.754838], [-71.598576, 41.751311], [-71.602395, 41.751348], [-71.609917, 41.746063], [-71.609718, 41.74876], [-71.607056, 41.751431], [-71.606094, 41.757568], [-71.602776, 41.759567], [-71.603691, 41.762035], [-71.611079, 41.76251], [-71.609497, 41.766414], [-71.611188, 41.771446], [-71.613672, 41.772637], [-71.62129, 41.766691], [-71.627368, 41.770247], [-71.633514, 41.768135], [-71.632858, 41.771458], [-71.639527, 41.776731], [-71.637121, 41.777285], [-71.64029, 41.781874], [-71.645302, 41.77962], [-71.65442, 41.782852], [-71.652837, 41.783029], [-71.652827, 41.783481], [-71.657766, 41.783863], [-71.662484, 41.785827], [-71.653091, 41.786736], [-71.653177, 41.788733], [-71.6574, 41.790851], [-71.666763, 41.790146], [-71.672974, 41.793118], [-71.67374, 41.791953], [-71.679749, 41.792596], [-71.686165, 41.828091], [-71.69278, 41.832047], [-71.694351, 41.838132], [-71.697457, 41.835409], [-71.696263, 41.83193], [-71.699051, 41.827486], [-71.700951, 41.830313], [-71.705001, 41.832069], [-71.706713, 41.831305], [-71.708653, 41.834303], [-71.711676, 41.834143], [-71.714449, 41.835958], [-71.713952, 41.837054], [-71.716578, 41.837334], [-71.719642, 41.840453], [-71.721138, 41.84499], [-71.719922, 41.848089], [-71.721363, 41.852084], [-71.726209, 41.855999]]]}}, {"type": "Feature", "properties": {"zip": "02885", "students": 1, "name": "Zip 02885", "pop": 1125, "acsPriv": 204, "seats": 0}, "geometry": {"type": "Polygon", "coordinates": [[[-71.293989, 41.710404], [-71.289294, 41.716001], [-71.287494, 41.723401], [-71.287294, 41.728501], [-71.2898, 41.733807], [-71.289002, 41.738959], [-71.286593, 41.742401], [-71.284404, 41.762005], [-71.261067, 41.752082], [-71.208371, 41.690598], [-71.210429, 41.688009], [-71.24323, 41.696608], [-71.25153, 41.715408], [-71.291377, 41.70955], [-71.293989, 41.710404]]]}}, {"type": "Feature", "properties": {"zip": "02806", "students": 5, "name": "Zip 02806", "pop": 3719, "acsPriv": 467, "seats": 0}, "geometry": {"type": "Polygon", "coordinates": [[[-71.365207, 41.735649], [-71.356997, 41.741601], [-71.353897, 41.751301], [-71.317873, 41.776199], [-71.284404, 41.762005], [-71.286593, 41.742401], [-71.289002, 41.738959], [-71.2898, 41.733807], [-71.287294, 41.728501], [-71.289294, 41.716001], [-71.29526, 41.707269], [-71.328976, 41.679936], [-71.33097, 41.686962], [-71.325667, 41.693213], [-71.332015, 41.70038], [-71.331315, 41.702902], [-71.342585, 41.715577], [-71.365207, 41.735649]]]}}, {"type": "Feature", "properties": {"zip": "02915", "students": 7, "name": "Zip 02915", "pop": 1636, "acsPriv": 237, "seats": 0}, "geometry": {"type": "Polygon", "coordinates": [[[-71.378193, 41.756983], [-71.376998, 41.7779], [-71.378198, 41.7844], [-71.369694, 41.783058], [-71.370953, 41.788337], [-71.372399, 41.790196], [-71.372923, 41.788316], [-71.373306, 41.789843], [-71.367142, 41.793961], [-71.369659, 41.796158], [-71.36834, 41.798759], [-71.351982, 41.795567], [-71.351456, 41.803238], [-71.34547, 41.798982], [-71.344824, 41.801204], [-71.343346, 41.800545], [-71.341124, 41.799546], [-71.340097, 41.796633], [-71.334139, 41.794425], [-71.332743, 41.79016], [-71.329457, 41.788327], [-71.330391, 41.785381], [-71.328472, 41.780694], [-71.317873, 41.776199], [-71.353897, 41.751301], [-71.356997, 41.741601], [-71.365207, 41.735649], [-71.372508, 41.744727], [-71.378193, 41.756983]]]}}, {"type": "Feature", "properties": {"zip": "02916", "students": 6, "name": "Zip 02916", "pop": 1030, "acsPriv": 283, "seats": 0}, "geometry": {"type": "Polygon", "coordinates": [[[-71.372996, 41.838065], [-71.37226, 41.844157], [-71.363738, 41.853122], [-71.363645, 41.85636], [-71.365795, 41.858341], [-71.334653, 41.861314], [-71.34255, 41.844656], [-71.335417, 41.835645], [-71.346095, 41.825984], [-71.348301, 41.824833], [-71.350096, 41.825724], [-71.34908, 41.828842], [-71.351074, 41.83085], [-71.352386, 41.828938], [-71.356008, 41.82991], [-71.35762, 41.827303], [-71.36132, 41.830555], [-71.367958, 41.83168], [-71.362205, 41.835458], [-71.365139, 41.838641], [-71.372996, 41.838065]]]}}, {"type": "Feature", "properties": {"zip": "02917", "students": 3, "name": "Zip 02917", "pop": 2149, "acsPriv": 301, "seats": 0}, "geometry": {"type": "Polygon", "coordinates": [[[-71.590312, 41.933665], [-71.490788, 41.943241], [-71.482705, 41.919002], [-71.479248, 41.915371], [-71.481095, 41.914774], [-71.466759, 41.872767], [-71.531464, 41.864269], [-71.530724, 41.870178], [-71.535454, 41.870191], [-71.533942, 41.873184], [-71.53483, 41.875507], [-71.538467, 41.877769], [-71.541115, 41.877495], [-71.540482, 41.881802], [-71.54127, 41.884961], [-71.541316, 41.883019], [-71.546277, 41.8818], [-71.550011, 41.877598], [-71.548592, 41.87973], [-71.549316, 41.881371], [-71.556268, 41.882443], [-71.554308, 41.884737], [-71.555911, 41.889402], [-71.560591, 41.890862], [-71.562213, 41.893049], [-71.565162, 41.890981], [-71.564039, 41.898842], [-71.569473, 41.900581], [-71.570141, 41.902675], [-71.572908, 41.901208], [-71.572578, 41.902463], [-71.576246, 41.905079], [-71.579796, 41.915695], [-71.587585, 41.921238], [-71.590312, 41.933665]], [[-71.530801, 41.875495], [-71.531311, 41.872559], [-71.525937, 41.873785], [-71.526561, 41.876404], [-71.530801, 41.875495]]]}}, {"type": "Feature", "properties": {"zip": "02886", "students": 10, "name": "Zip 02886", "pop": 4565, "acsPriv": 725, "seats": 227}, "geometry": {"type": "Polygon", "coordinates": [[[-71.518844, 41.696027], [-71.512634, 41.70679], [-71.505188, 41.711307], [-71.497437, 41.712966], [-71.492892, 41.717826], [-71.491119, 41.717467], [-71.490539, 41.717516], [-71.490089, 41.717791], [-71.490151, 41.722131], [-71.485507, 41.726328], [-71.48391, 41.731603], [-71.454907, 41.732443], [-71.453007, 41.733708], [-71.453911, 41.736932], [-71.451748, 41.739456], [-71.444684, 41.740155], [-71.443255, 41.741978], [-71.443165, 41.73743], [-71.439896, 41.737322], [-71.441122, 41.73396], [-71.4366, 41.732263], [-71.432278, 41.733388], [-71.430954, 41.736104], [-71.427154, 41.735907], [-71.427353, 41.733616], [-71.426116, 41.733635], [-71.420862, 41.734519], [-71.420669, 41.736891], [-71.415857, 41.737261], [-71.413536, 41.735078], [-71.416584, 41.733149], [-71.414734, 41.728987], [-71.420365, 41.72749], [-71.420982, 41.724573], [-71.41723, 41.722373], [-71.413132, 41.712985], [-71.417893, 41.711838], [-71.419305, 41.707993], [-71.417616, 41.705591], [-71.420319, 41.704066], [-71.426712, 41.704386], [-71.424301, 41.703239], [-71.425301, 41.703092], [-71.422791, 41.697813], [-71.416456, 41.699596], [-71.407151, 41.694487], [-71.393201, 41.669592], [-71.4082, 41.67452], [-71.423504, 41.676346], [-71.434639, 41.674434], [-71.440806, 41.669613], [-71.441332, 41.674401], [-71.446201, 41.673748], [-71.444488, 41.674325], [-71.448234, 41.679117], [-71.458948, 41.678093], [-71.458017, 41.670426], [-71.467209, 41.670259], [-71.469345, 41.673176], [-71.469945, 41.670066], [-71.475557, 41.6699], [-71.478722, 41.671099], [-71.478317, 41.675793], [-71.482124, 41.68107], [-71.480858, 41.684236], [-71.484257, 41.67966], [-71.492481, 41.679776], [-71.491698, 41.676788], [-71.498085, 41.676756], [-71.500001, 41.67739], [-71.501679, 41.696474], [-71.518844, 41.696027]], [[-71.429802, 41.700061], [-71.425499, 41.698508], [-71.425156, 41.699236], [-71.426292, 41.702936], [-71.429633, 41.702405], [-71.429802, 41.700061]]]}}, {"type": "Feature", "properties": {"zip": "02818", "students": 5, "name": "Zip 02818", "pop": 2940, "acsPriv": 465, "seats": 505}, "geometry": {"type": "Polygon", "coordinates": [[[-71.547113, 41.661851], [-71.499225, 41.662948], [-71.500001, 41.67739], [-71.491698, 41.676788], [-71.492481, 41.679776], [-71.484257, 41.67966], [-71.480858, 41.684236], [-71.482124, 41.68107], [-71.478317, 41.675793], [-71.478722, 41.671099], [-71.475557, 41.6699], [-71.469945, 41.670066], [-71.469345, 41.673176], [-71.467209, 41.670259], [-71.458017, 41.670426], [-71.458948, 41.678093], [-71.448234, 41.679117], [-71.444488, 41.674325], [-71.446201, 41.673748], [-71.441332, 41.674401], [-71.440806, 41.669613], [-71.434639, 41.674434], [-71.423504, 41.676346], [-71.4082, 41.67452], [-71.393201, 41.669592], [-71.390103, 41.652293], [-71.417581, 41.654952], [-71.423884, 41.653888], [-71.428941, 41.650569], [-71.432796, 41.651323], [-71.442617, 41.645712], [-71.441986, 41.643275], [-71.449248, 41.636794], [-71.448444, 41.6333], [-71.451366, 41.629455], [-71.45391, 41.630048], [-71.455236, 41.63463], [-71.459194, 41.637967], [-71.462354, 41.63838], [-71.467388, 41.634309], [-71.469666, 41.634536], [-71.472535, 41.632077], [-71.47132, 41.629076], [-71.482482, 41.62358], [-71.486111, 41.619774], [-71.486001, 41.616935], [-71.488039, 41.616334], [-71.487503, 41.613487], [-71.485384, 41.612872], [-71.484427, 41.602591], [-71.544807, 41.601993], [-71.547113, 41.661851]]]}}, {"type": "Feature", "properties": {"zip": "02879", "students": 7, "name": "Zip 02879", "pop": 2571, "acsPriv": 253, "seats": 0}, "geometry": {"type": "Polygon", "coordinates": [[[-71.625584, 41.360825], [-71.606915, 41.36393], [-71.6082, 41.365808], [-71.612446, 41.364989], [-71.612243, 41.366872], [-71.61721, 41.364291], [-71.624395, 41.364248], [-71.621983, 41.368621], [-71.620703, 41.368065], [-71.622142, 41.366467], [-71.61986, 41.36788], [-71.621981, 41.37004], [-71.622964, 41.368266], [-71.595141, 41.446225], [-71.598171, 41.449596], [-71.603667, 41.449618], [-71.601378, 41.451312], [-71.595306, 41.4488], [-71.599527, 41.452684], [-71.580618, 41.466695], [-71.565599, 41.465943], [-71.564315, 41.463998], [-71.560034, 41.464514], [-71.555645, 41.462482], [-71.548916, 41.467009], [-71.545036, 41.460396], [-71.54458, 41.461765], [-71.542349, 41.461571], [-71.542387, 41.463484], [-71.539638, 41.463284], [-71.538777, 41.466484], [-71.520474, 41.469239], [-71.520483, 41.471328], [-71.515007, 41.472816], [-71.512644, 41.473198], [-71.513614, 41.469816], [-71.509587, 41.469384], [-71.510657, 41.471007], [-71.507256, 41.473731], [-71.509361, 41.474025], [-71.509511, 41.476137], [-71.513874, 41.47558], [-71.513825, 41.478389], [-71.517734, 41.478388], [-71.518388, 41.480574], [-71.506064, 41.482385], [-71.503385, 41.488481], [-71.503935, 41.490325], [-71.500342, 41.49298], [-71.500481, 41.49469], [-71.497457, 41.49449], [-71.497537, 41.492652], [-71.49343, 41.492582], [-71.49164, 41.490507], [-71.456424, 41.494771], [-71.454147, 41.491929], [-71.455469, 41.487749], [-71.447047, 41.48833], [-71.4496, 41.472401], [-71.4484, 41.468401], [-71.451034, 41.462205], [-71.451617, 41.453157], [-71.466022, 41.442563], [-71.48961, 41.432013], [-71.485069, 41.43153], [-71.488548, 41.430187], [-71.484786, 41.428017], [-71.485485, 41.425227], [-71.493766, 41.427596], [-71.49265, 41.422427], [-71.495801, 41.422601], [-71.497101, 41.417502], [-71.503202, 41.417601], [-71.504827, 41.407512], [-71.514516, 41.384906], [-71.517312, 41.382136], [-71.514268, 41.375671], [-71.514369, 41.374585], [-71.516325, 41.372573], [-71.514702, 41.365417], [-71.516465, 41.371819], [-71.516465, 41.372585], [-71.514952, 41.374481], [-71.522706, 41.376815], [-71.530433, 41.375831], [-71.536799, 41.372271], [-71.551813, 41.373217], [-71.599882, 41.363296], [-71.626295, 41.359421], [-71.625584, 41.360825]]]}}, {"type": "Feature", "properties": {"zip": "02865", "students": 13, "name": "Zip 02865", "pop": 2923, "acsPriv": 313, "seats": 0}, "geometry": {"type": "Polygon", "coordinates": [[[-71.490788, 41.943241], [-71.488137, 41.944405], [-71.48494, 41.942436], [-71.483963, 41.944322], [-71.484273, 41.94589], [-71.48744, 41.947114], [-71.488149, 41.954806], [-71.487049, 41.956325], [-71.48496, 41.956078], [-71.487313, 41.95848], [-71.486063, 41.960312], [-71.486991, 41.961232], [-71.47954, 41.958012], [-71.468275, 41.948092], [-71.467423, 41.950662], [-71.471908, 41.955522], [-71.471607, 41.959945], [-71.468719, 41.957019], [-71.462977, 41.957104], [-71.457241, 41.954318], [-71.462677, 41.951286], [-71.460186, 41.949497], [-71.454885, 41.950746], [-71.451476, 41.9435], [-71.45195, 41.948315], [-71.448055, 41.94751], [-71.451327, 41.949708], [-71.452293, 41.951876], [-71.45058, 41.949571], [-71.442885, 41.947656], [-71.430955, 41.934636], [-71.430939, 41.926987], [-71.428729, 41.923823], [-71.4217, 41.922145], [-71.40595, 41.911151], [-71.399222, 41.912083], [-71.397117, 41.910969], [-71.400658, 41.901711], [-71.394296, 41.897652], [-71.404691, 41.894784], [-71.407283, 41.891633], [-71.403706, 41.881059], [-71.466759, 41.872767], [-71.481095, 41.914774], [-71.479248, 41.915371], [-71.482705, 41.919002], [-71.490788, 41.943241]]]}}, {"type": "Feature", "properties": {"zip": "02920", "students": 30, "name": "Zip 02920", "pop": 5070, "acsPriv": 863, "seats": 0}, "geometry": {"type": "Polygon", "coordinates": [[[-71.496694, 41.790216], [-71.489563, 41.791592], [-71.481102, 41.796566], [-71.472431, 41.796391], [-71.471253, 41.798513], [-71.467716, 41.798032], [-71.466027, 41.803749], [-71.463665, 41.805046], [-71.460089, 41.804399], [-71.442223, 41.807203], [-71.439941, 41.802078], [-71.440461, 41.793493], [-71.448359, 41.793258], [-71.456061, 41.787147], [-71.45726, 41.783974], [-71.456099, 41.78426], [-71.451507, 41.776491], [-71.454111, 41.773934], [-71.454043, 41.770946], [-71.451644, 41.768388], [-71.449716, 41.768586], [-71.44377, 41.762162], [-71.442865, 41.759114], [-71.43912, 41.75639], [-71.44112, 41.754917], [-71.440619, 41.752153], [-71.446569, 41.749905], [-71.444291, 41.740396], [-71.451748, 41.739456], [-71.453911, 41.736932], [-71.453007, 41.733708], [-71.454907, 41.732443], [-71.493751, 41.731295], [-71.491445, 41.734544], [-71.489029, 41.734959], [-71.489037, 41.739929], [-71.480263, 41.755566], [-71.477249, 41.756245], [-71.479535, 41.758854], [-71.479121, 41.767089], [-71.482124, 41.768486], [-71.4808, 41.768581], [-71.48079, 41.778206], [-71.475334, 41.780071], [-71.479563, 41.780742], [-71.478518, 41.785465], [-71.486881, 41.782779], [-71.492758, 41.782973], [-71.496578, 41.786728], [-71.496694, 41.790216]]]}}, {"type": "Feature", "properties": {"zip": "02861", "students": 37, "name": "Zip 02861", "pop": 4135, "acsPriv": 769, "seats": 244}, "geometry": {"type": "Polygon", "coordinates": [[[-71.373768, 41.894457], [-71.354831, 41.89781], [-71.354558, 41.896728], [-71.338787, 41.898593], [-71.34089, 41.881804], [-71.334653, 41.861314], [-71.363744, 41.85854], [-71.365062, 41.88128], [-71.373768, 41.894457]]]}}, {"type": "Feature", "properties": {"zip": "02878", "students": 7, "name": "Zip 02878", "pop": 1702, "acsPriv": 348, "seats": 0}, "geometry": {"type": "Polygon", "coordinates": [[[-71.223413, 41.561392], [-71.22026, 41.564695], [-71.218116, 41.56479], [-71.215468, 41.563374], [-71.214206, 41.559977], [-71.212441, 41.560543], [-71.2114, 41.581035], [-71.217218, 41.584579], [-71.216795, 41.587249], [-71.21196, 41.591515], [-71.21196, 41.595395], [-71.20664, 41.595977], [-71.214295, 41.607811], [-71.214555, 41.614116], [-71.217539, 41.612758], [-71.221785, 41.613564], [-71.222284, 41.617292], [-71.214668, 41.618546], [-71.21328, 41.620095], [-71.214668, 41.622952], [-71.217083, 41.623728], [-71.212168, 41.652628], [-71.20787, 41.661323], [-71.20338, 41.6608], [-71.20172, 41.662704], [-71.195594, 41.675201], [-71.175784, 41.671493], [-71.17612, 41.668248], [-71.132557, 41.660363], [-71.135307, 41.628488], [-71.140185, 41.623869], [-71.141958, 41.612533], [-71.140308, 41.60485], [-71.13162, 41.593716], [-71.127837, 41.563203], [-71.214618, 41.544861], [-71.218621, 41.546199], [-71.217738, 41.553371], [-71.215594, 41.556108], [-71.222656, 41.558373], [-71.223413, 41.561392]]]}}, {"type": "Feature", "properties": {"zip": "02911", "students": 14, "name": "Zip 02911", "pop": 1657, "acsPriv": 103, "seats": 0}, "geometry": {"type": "Polygon", "coordinates": [[[-71.495545, 41.868983], [-71.475526, 41.87157], [-71.473602, 41.870823], [-71.473966, 41.868913], [-71.471573, 41.869187], [-71.472896, 41.867395], [-71.470856, 41.866589], [-71.472747, 41.862637], [-71.474053, 41.86265], [-71.473503, 41.859596], [-71.472015, 41.861067], [-71.470955, 41.858883], [-71.465561, 41.86079], [-71.46521, 41.859619], [-71.462875, 41.860088], [-71.461548, 41.85836], [-71.462494, 41.857334], [-71.451647, 41.856313], [-71.450653, 41.85301], [-71.449112, 41.852856], [-71.451263, 41.85102], [-71.45614, 41.850727], [-71.455905, 41.847903], [-71.458603, 41.845177], [-71.466949, 41.840477], [-71.465553, 41.837004], [-71.471721, 41.836169], [-71.473402, 41.838993], [-71.477018, 41.837829], [-71.480782, 41.84597], [-71.481106, 41.851104], [-71.485636, 41.853519], [-71.488251, 41.862278], [-71.495545, 41.868983]]]}}, {"type": "Feature", "properties": {"zip": "02904", "students": 25, "name": "Zip 02904", "pop": 5351, "acsPriv": 508, "seats": 62}, "geometry": {"type": "Polygon", "coordinates": [[[-71.475526, 41.87157], [-71.4219, 41.878695], [-71.417418, 41.859666], [-71.411057, 41.858913], [-71.410803, 41.856724], [-71.406527, 41.855551], [-71.399456, 41.856786], [-71.402672, 41.850567], [-71.400795, 41.849941], [-71.40303, 41.849976], [-71.405052, 41.84676], [-71.403732, 41.846153], [-71.405357, 41.846252], [-71.409485, 41.838535], [-71.404442, 41.836693], [-71.409813, 41.835091], [-71.408501, 41.834772], [-71.407993, 41.830452], [-71.41229, 41.831468], [-71.426628, 41.853081], [-71.428825, 41.853676], [-71.433815, 41.850227], [-71.439163, 41.854095], [-71.442391, 41.851054], [-71.449896, 41.850104], [-71.448418, 41.852264], [-71.450653, 41.85301], [-71.451647, 41.856313], [-71.460381, 41.856564], [-71.462494, 41.857334], [-71.461548, 41.85836], [-71.462875, 41.860088], [-71.46521, 41.859619], [-71.465561, 41.86079], [-71.468048, 41.858971], [-71.470955, 41.858883], [-71.472015, 41.861067], [-71.473503, 41.859596], [-71.474053, 41.86265], [-71.472747, 41.862637], [-71.470856, 41.866589], [-71.472896, 41.867395], [-71.471573, 41.869187], [-71.473966, 41.868913], [-71.473602, 41.870823], [-71.475526, 41.87157]]]}}, {"type": "Feature", "properties": {"zip": "02860", "students": 63, "name": "Zip 02860", "pop": 8464, "acsPriv": 1129, "seats": 0}, "geometry": {"type": "Polygon", "coordinates": [[[-71.421853, 41.8787], [-71.380946, 41.884075], [-71.380219, 41.88793], [-71.383093, 41.88987], [-71.381463, 41.893546], [-71.373798, 41.894454], [-71.364982, 41.88096], [-71.363744, 41.85854], [-71.365795, 41.858341], [-71.363645, 41.85636], [-71.363738, 41.853122], [-71.37226, 41.844157], [-71.372334, 41.850548], [-71.375021, 41.857449], [-71.405543, 41.856672], [-71.406527, 41.855551], [-71.410803, 41.856724], [-71.411057, 41.858913], [-71.417418, 41.859666], [-71.421853, 41.8787]]]}}, {"type": "Feature", "properties": {"zip": "02828", "students": 2, "name": "Zip 02828", "pop": 921, "acsPriv": 56, "seats": 0}, "geometry": {"type": "MultiPolygon", "coordinates": [[[[-71.532188, 41.873814], [-71.526561, 41.876404], [-71.525937, 41.873785], [-71.531311, 41.872559], [-71.532188, 41.873814]]], [[[-71.581891, 41.894665], [-71.571825, 41.902236], [-71.566147, 41.900307], [-71.566536, 41.899277], [-71.563685, 41.897966], [-71.565886, 41.892722], [-71.565162, 41.890981], [-71.562213, 41.893049], [-71.560591, 41.890862], [-71.555911, 41.889402], [-71.554308, 41.884737], [-71.556268, 41.882443], [-71.549316, 41.881371], [-71.548592, 41.87973], [-71.550011, 41.877598], [-71.546277, 41.8818], [-71.541316, 41.883019], [-71.54127, 41.884961], [-71.541115, 41.877495], [-71.538467, 41.877769], [-71.53483, 41.875507], [-71.533942, 41.873184], [-71.535454, 41.870191], [-71.530724, 41.870178], [-71.531464, 41.864269], [-71.549385, 41.861937], [-71.548561, 41.861217], [-71.548531, 41.858829], [-71.549626, 41.858069], [-71.548733, 41.860832], [-71.550423, 41.861765], [-71.554998, 41.861207], [-71.554271, 41.859529], [-71.555585, 41.85864], [-71.557505, 41.859389], [-71.55687, 41.860969], [-71.574642, 41.858748], [-71.576523, 41.867768], [-71.580046, 41.867016], [-71.57876, 41.871707], [-71.577568, 41.871632], [-71.579371, 41.873128], [-71.579282, 41.875209], [-71.57805, 41.875088], [-71.581891, 41.894665]]], [[[-71.584467, 41.87515], [-71.583504, 41.876952], [-71.581174, 41.876635], [-71.58029, 41.873512], [-71.584467, 41.87515]]]]}}, {"type": "Feature", "properties": {"zip": "02859", "students": 2, "name": "Zip 02859", "pop": 811, "acsPriv": 70, "seats": 0}, "geometry": {"type": "Polygon", "coordinates": [[[-71.797778, 41.928645], [-71.799188, 42.008053], [-71.724934, 42.010542], [-71.718697, 41.993532], [-71.712182, 41.999538], [-71.705053, 41.991731], [-71.697155, 41.973443], [-71.697235, 41.968693], [-71.699851, 41.968091], [-71.691049, 41.965176], [-71.693197, 41.963317], [-71.68932, 41.961436], [-71.687677, 41.955706], [-71.689217, 41.950457], [-71.673561, 41.943718], [-71.673241, 41.935112], [-71.675456, 41.929623], [-71.67626, 41.93159], [-71.797778, 41.928645]]]}}, {"type": "Feature", "properties": {"zip": "02895", "students": 21, "name": "Zip 02895", "pop": 6703, "acsPriv": 475, "seats": 565}, "geometry": {"type": "Polygon", "coordinates": [[[-71.540006, 42.009807], [-71.529658, 42.009827], [-71.530476, 42.012122], [-71.529125, 42.015063], [-71.498259, 42.017272], [-71.454035, 42.017848], [-71.45822, 42.016209], [-71.459891, 42.00757], [-71.487364, 41.979085], [-71.517235, 41.983437], [-71.531754, 41.989574], [-71.540006, 42.009807]]]}}, {"type": "Feature", "properties": {"zip": "02889", "students": 15, "name": "Zip 02889", "pop": 3434, "acsPriv": 536, "seats": 610}, "geometry": {"type": "MultiPolygon", "coordinates": [[[[-71.426514, 41.704656], [-71.420319, 41.704066], [-71.417616, 41.705591], [-71.419305, 41.707993], [-71.417893, 41.711838], [-71.413132, 41.712985], [-71.41723, 41.722373], [-71.420982, 41.724573], [-71.420365, 41.72749], [-71.414734, 41.728987], [-71.416584, 41.733149], [-71.415093, 41.733194], [-71.415382, 41.734872], [-71.390343, 41.733592], [-71.389158, 41.734739], [-71.390159, 41.737304], [-71.38487, 41.7383], [-71.384588, 41.739808], [-71.381167, 41.735317], [-71.366103, 41.73667], [-71.342585, 41.715577], [-71.331315, 41.702902], [-71.332015, 41.70038], [-71.325667, 41.693213], [-71.33097, 41.686962], [-71.354069, 41.678165], [-71.361532, 41.669192], [-71.374783, 41.662765], [-71.379718, 41.656458], [-71.380542, 41.650326], [-71.390103, 41.652293], [-71.393201, 41.669592], [-71.407151, 41.694487], [-71.416456, 41.699596], [-71.422791, 41.697813], [-71.425301, 41.703092], [-71.424301, 41.703239], [-71.426514, 41.704656]]], [[[-71.429948, 41.700074], [-71.429633, 41.702405], [-71.426292, 41.702936], [-71.425156, 41.699236], [-71.429948, 41.700074]]]]}}, {"type": "Feature", "properties": {"zip": "02888", "students": 11, "name": "Zip 02888", "pop": 2406, "acsPriv": 282, "seats": 0}, "geometry": {"type": "Polygon", "coordinates": [[[-71.446615, 41.749527], [-71.440619, 41.752153], [-71.44112, 41.754917], [-71.43912, 41.75639], [-71.440662, 41.757795], [-71.433775, 41.761441], [-71.433076, 41.759339], [-71.427277, 41.76066], [-71.420941, 41.764888], [-71.418715, 41.764076], [-71.41974, 41.761626], [-71.413971, 41.763124], [-71.410702, 41.766554], [-71.403468, 41.767856], [-71.400846, 41.766506], [-71.399577, 41.768321], [-71.395886, 41.767038], [-71.394457, 41.764107], [-71.388517, 41.763775], [-71.384733, 41.757602], [-71.378273, 41.755297], [-71.366103, 41.73667], [-71.381167, 41.735317], [-71.384588, 41.739808], [-71.38487, 41.7383], [-71.390159, 41.737304], [-71.389158, 41.734739], [-71.390343, 41.733592], [-71.413726, 41.735301], [-71.417786, 41.737226], [-71.420761, 41.736835], [-71.420862, 41.734519], [-71.426116, 41.733635], [-71.427353, 41.733616], [-71.427154, 41.735907], [-71.430954, 41.736104], [-71.432278, 41.733388], [-71.4366, 41.732263], [-71.441122, 41.73396], [-71.439896, 41.737322], [-71.443165, 41.73743], [-71.443255, 41.741978], [-71.443731, 41.741274], [-71.443963, 41.74118], [-71.446615, 41.749527]]]}}, {"type": "Feature", "properties": {"zip": "02809", "students": 5, "name": "Zip 02809", "pop": 2321, "acsPriv": 563, "seats": 113}, "geometry": {"type": "Polygon", "coordinates": [[[-71.328976, 41.679936], [-71.29526, 41.707269], [-71.294039, 41.71028], [-71.291377, 41.70955], [-71.25153, 41.715408], [-71.24323, 41.696608], [-71.210429, 41.688009], [-71.220716, 41.675347], [-71.221143, 41.670419], [-71.224608, 41.666053], [-71.256728, 41.638137], [-71.267197, 41.638991], [-71.275727, 41.650678], [-71.291688, 41.648557], [-71.300279, 41.642675], [-71.311465, 41.644048], [-71.31824, 41.650648], [-71.321825, 41.657148], [-71.328976, 41.679936]]]}}, {"type": "Feature", "properties": {"zip": "02893", "students": 24, "name": "Zip 02893", "pop": 3794, "acsPriv": 871, "seats": 0}, "geometry": {"type": "Polygon", "coordinates": [[[-71.533379, 41.662156], [-71.534286, 41.730171], [-71.48391, 41.731603], [-71.485507, 41.726328], [-71.490151, 41.722131], [-71.490089, 41.717791], [-71.492892, 41.717826], [-71.497437, 41.712966], [-71.505188, 41.711307], [-71.512634, 41.70679], [-71.518913, 41.695899], [-71.501679, 41.696474], [-71.499225, 41.662948], [-71.533379, 41.662156]]]}}, {"type": "Feature", "properties": {"zip": "02808", "students": 1, "name": "Zip 02808", "pop": 368, "acsPriv": 115, "seats": 0}, "geometry": {"type": "Polygon", "coordinates": [[[-71.781084, 41.39324], [-71.778937, 41.394566], [-71.776831, 41.393328], [-71.776231, 41.393521], [-71.773737, 41.394993], [-71.773168, 41.395976], [-71.775399, 41.394149], [-71.773423, 41.39601], [-71.77144, 41.397134], [-71.772723, 41.400236], [-71.771103, 41.40139], [-71.766121, 41.399559], [-71.767231, 41.402439], [-71.762714, 41.407005], [-71.765909, 41.414176], [-71.769206, 41.414314], [-71.765175, 41.418007], [-71.772317, 41.418736], [-71.773415, 41.422546], [-71.771858, 41.424558], [-71.768806, 41.424152], [-71.765527, 41.428676], [-71.766902, 41.430815], [-71.761433, 41.431745], [-71.759829, 41.430491], [-71.760373, 41.427397], [-71.754822, 41.427856], [-71.753563, 41.434601], [-71.740255, 41.433347], [-71.730969, 41.434613], [-71.726766, 41.430207], [-71.727645, 41.42788], [-71.725772, 41.426896], [-71.72596, 41.422305], [-71.730027, 41.414518], [-71.72705, 41.409793], [-71.723598, 41.408432], [-71.723542, 41.404449], [-71.727462, 41.401703], [-71.727975, 41.396588], [-71.731252, 41.398514], [-71.730891, 41.378395], [-71.737663, 41.377468], [-71.740189, 41.372826], [-71.74514, 41.370964], [-71.748306, 41.383217], [-71.752037, 41.382484], [-71.755142, 41.379227], [-71.758741, 41.379968], [-71.758975, 41.378462], [-71.766536, 41.379637], [-71.762006, 41.383568], [-71.756602, 41.393103], [-71.752667, 41.39424], [-71.752952, 41.398582], [-71.774037, 41.385739], [-71.779222, 41.387277], [-71.778987, 41.390378], [-71.781084, 41.39324]]]}}, {"type": "Feature", "properties": {"zip": "02822", "students": 1, "name": "Zip 02822", "pop": 865, "acsPriv": 21, "seats": 0}, "geometry": {"type": "Polygon", "coordinates": [[[-71.791391, 41.546376], [-71.789247, 41.596847], [-71.74332, 41.598657], [-71.65357, 41.598701], [-71.643983, 41.600979], [-71.522429, 41.602566], [-71.518433, 41.59404], [-71.519566, 41.529925], [-71.518439, 41.527656], [-71.530528, 41.503752], [-71.603376, 41.522706], [-71.602522, 41.523757], [-71.605574, 41.526632], [-71.607095, 41.534096], [-71.606076, 41.53847], [-71.609844, 41.546639], [-71.602798, 41.548084], [-71.60556, 41.556931], [-71.60466, 41.559057], [-71.610301, 41.556858], [-71.612666, 41.560622], [-71.620715, 41.564234], [-71.622198, 41.570413], [-71.625769, 41.574657], [-71.625993, 41.578576], [-71.627401, 41.578655], [-71.643974, 41.56176], [-71.791391, 41.546376]]]}}, {"type": "Feature", "properties": {"zip": "02703", "students": 1, "name": "Zip 02703", "pop": 7120, "acsPriv": 744, "seats": 0}, "geometry": {"type": "Polygon", "coordinates": [[[-71.381463, 41.893731], [-71.381439, 41.914816], [-71.335958, 41.940786], [-71.268739, 41.9873], [-71.208162, 41.908852], [-71.222494, 41.912244], [-71.381463, 41.893731]]]}}]}